{
    "type": "FeatureCollection", 
    "features": [
        {
            "type": "Feature", 
            "geometry": {
                "type": "LineString", 
                "coordinates": [
                    [122.53835, 10.75338, 0], 
                    [122.53834, 10.75337, 0], 
                    [122.53834, 10.75336, 0], 
                    [122.53833, 10.75335, 0], 
                    [122.53833, 10.75333, 0], 
                    [122.53833, 10.75326, 0], 
                    [122.53829, 10.75310, 0], 
                    [122.53829, 10.75309, 0], 
                    [122.53821, 10.75286, 0], 
                    [122.53827, 10.75285, 0], 
                    [122.53845, 10.75283, 0], 
                    [122.53857, 10.75282, 0], 
                    [122.53857, 10.75246, 0], 
                    [122.53859, 10.75160, 0], 
                    [122.53859, 10.75123, 0], 
                    [122.53861, 10.75082, 0], 
                    [122.53865, 10.75051, 0], 
                    [122.53868, 10.75027, 0], 
                    [122.53882, 10.74950, 0], 
                    [122.53886, 10.74913, 0], 
                    [122.53887, 10.74910, 0], 
                    [122.53888, 10.74908, 0], 
                    [122.53889, 10.74907, 0], 
                    [122.53892, 10.74904, 0], 
                    [122.53893, 10.74896, 0], 
                    [122.53896, 10.74878, 0], 
                    [122.53900, 10.74848, 0], 
                    [122.53905, 10.74817, 0], 
                    [122.53910, 10.74782, 0], 
                    [122.53920, 10.74701, 0], 
                    [122.53921, 10.74692, 0], 
                    [122.53923, 10.74662, 0], 
                    [122.53926, 10.74636, 0], 
                    [122.53931, 10.74576, 0], 
                    [122.53934, 10.74554, 0], 
                    [122.53942, 10.74476, 0], 
                    [122.53949, 10.74423, 0], 
                    [122.53950, 10.74412, 0], 
                    [122.53950, 10.74395, 0], 
                    [122.53950, 10.74378, 0], 
                    [122.53948, 10.74357, 0], 
                    [122.53944, 10.74322, 0], 
                    [122.53940, 10.74301, 0], 
                    [122.53933, 10.74268, 0], 
                    [122.53920, 10.74218, 0], 
                    [122.53933, 10.74212, 0], 
                    [122.53950, 10.74205, 0], 
                    [122.53964, 10.74199, 0], 
                    [122.53974, 10.74194, 0], 
                    [122.53987, 10.74186, 0], 
                    [122.54003, 10.74176, 0], 
                    [122.54014, 10.74167, 0], 
                    [122.54045, 10.74133, 0], 
                    [122.54047, 10.74130, 0], 
                    [122.54056, 10.74114, 0], 
                    [122.54066, 10.74103, 0], 
                    [122.54088, 10.74075, 0], 
                    [122.54101, 10.74060, 0], 
                    [122.54137, 10.74028, 0], 
                    [122.54191, 10.73979, 0], 
                    [122.54227, 10.73946, 0], 
                    [122.54279, 10.73898, 0], 
                    [122.54343, 10.73834, 0], 
                    [122.54381, 10.73799, 0], 
                    [122.54430, 10.73755, 0], 
                    [122.54448, 10.73738, 0], 
                    [122.54466, 10.73724, 0], 
                    [122.54503, 10.73691, 0], 
                    [122.54512, 10.73682, 0], 
                    [122.54536, 10.73660, 0], 
                    [122.54579, 10.73622, 0], 
                    [122.54601, 10.73602, 0], 
                    [122.54614, 10.73590, 0], 
                    [122.54670, 10.73540, 0], 
                    [122.54695, 10.73519, 0], 
                    [122.54717, 10.73500, 0], 
                    [122.54745, 10.73477, 0], 
                    [122.54760, 10.73464, 0], 
                    [122.54794, 10.73434, 0], 
                    [122.54830, 10.73402, 0], 
                    [122.54836, 10.73397, 0], 
                    [122.54840, 10.73393, 0], 
                    [122.54878, 10.73360, 0], 
                    [122.54906, 10.73337, 0], 
                    [122.54907, 10.73336, 0], 
                    [122.54923, 10.73322, 0], 
                    [122.55026, 10.73240, 0], 
                    [122.55048, 10.73222, 0], 
                    [122.55057, 10.73216, 0], 
                    [122.55060, 10.73213, 0], 
                    [122.55096, 10.73182, 0], 
                    [122.55113, 10.73168, 0], 
                    [122.55131, 10.73153, 0], 
                    [122.55170, 10.73118, 0], 
                    [122.55206, 10.73084, 0], 
                    [122.55227, 10.73066, 0], 
                    [122.55228, 10.73065, 0], 
                    [122.55234, 10.73059, 0], 
                    [122.55273, 10.73022, 0], 
                    [122.55332, 10.72967, 0], 
                    [122.55345, 10.72956, 0], 
                    [122.55365, 10.72936, 0], 
                    [122.55417, 10.72889, 0], 
                    [122.55421, 10.72885, 0], 
                    [122.55426, 10.72881, 0], 
                    [122.55462, 10.72848, 0], 
                    [122.55507, 10.72804, 0], 
                    [122.55549, 10.72762, 0], 
                    [122.55559, 10.72751, 0], 
                    [122.55563, 10.72747, 0], 
                    [122.55603, 10.72697, 0], 
                    [122.55644, 10.72648, 0], 
                    [122.55712, 10.72554, 0], 
                    [122.55703, 10.72555, 0], 
                    [122.55694, 10.72548, 0], 
                    [122.55681, 10.72533, 0], 
                    [122.55658, 10.72503, 0], 
                    [122.55635, 10.72470, 0], 
                    [122.55639, 10.72460, 0], 
                    [122.55642, 10.72454, 0], 
                    [122.55645, 10.72449, 0], 
                    [122.55650, 10.72441, 0], 
                    [122.55662, 10.72427, 0], 
                    [122.55674, 10.72417, 0], 
                    [122.55686, 10.72407, 0], 
                    [122.55693, 10.72400, 0], 
                    [122.55726, 10.72368, 0], 
                    [122.55760, 10.72327, 0], 
                    [122.55768, 10.72314, 0], 
                    [122.55795, 10.72278, 0], 
                    [122.55829, 10.72235, 0], 
                    [122.55877, 10.72170, 0], 
                    [122.55889, 10.72153, 0], 
                    [122.55913, 10.72117, 0], 
                    [122.55918, 10.72111, 0], 
                    [122.55924, 10.72103, 0], 
                    [122.55934, 10.72088, 0], 
                    [122.55947, 10.72069, 0], 
                    [122.55950, 10.72064, 0], 
                    [122.55959, 10.72049, 0], 
                    [122.55969, 10.72033, 0], 
                    [122.55978, 10.72018, 0], 
                    [122.56025, 10.71950, 0], 
                    [122.56064, 10.71891, 0], 
                    [122.56080, 10.71866, 0], 
                    [122.56103, 10.71827, 0], 
                    [122.56128, 10.71786, 0], 
                    [122.56146, 10.71756, 0], 
                    [122.56162, 10.71731, 0], 
                    [122.56185, 10.71695, 0], 
                    [122.56193, 10.71681, 0], 
                    [122.56216, 10.71644, 0], 
                    [122.56240, 10.71609, 0], 
                    [122.56250, 10.71593, 0], 
                    [122.56266, 10.71567, 0], 
                    [122.56269, 10.71555, 0], 
                    [122.56320, 10.71470, 0], 
                    [122.56353, 10.71421, 0], 
                    [122.56388, 10.71369, 0], 
                    [122.56406, 10.71345, 0], 
                    [122.56408, 10.71342, 0], 
                    [122.56415, 10.71331, 0], 
                    [122.56424, 10.71315, 0], 
                    [122.56437, 10.71293, 0], 
                    [122.56445, 10.71286, 0], 
                    [122.56454, 10.71273, 0], 
                    [122.56458, 10.71266, 0], 
                    [122.56462, 10.71261, 0], 
                    [122.56472, 10.71244, 0], 
                    [122.56482, 10.71223, 0], 
                    [122.56531, 10.71143, 0], 
                    [122.56569, 10.71082, 0], 
                    [122.56572, 10.71077, 0], 
                    [122.56594, 10.71042, 0], 
                    [122.56599, 10.71033, 0], 
                    [122.56608, 10.71020, 0], 
                    [122.56620, 10.71000, 0], 
                    [122.56662, 10.70931, 0], 
                    [122.56666, 10.70925, 0], 
                    [122.56667, 10.70919, 0], 
                    [122.56669, 10.70913, 0], 
                    [122.56671, 10.70907, 0], 
                    [122.56673, 10.70898, 0], 
                    [122.56702, 10.70807, 0], 
                    [122.56710, 10.70778, 0], 
                    [122.56713, 10.70767, 0], 
                    [122.56716, 10.70749, 0], 
                    [122.56720, 10.70733, 0], 
                    [122.56723, 10.70721, 0], 
                    [122.56726, 10.70704, 0], 
                    [122.56728, 10.70698, 0], 
                    [122.56731, 10.70688, 0], 
                    [122.56734, 10.70680, 0], 
                    [122.56740, 10.70663, 0], 
                    [122.56741, 10.70658, 0], 
                    [122.56749, 10.70637, 0], 
                    [122.56752, 10.70627, 0], 
                    [122.56769, 10.70575, 0], 
                    [122.56786, 10.70521, 0], 
                    [122.56790, 10.70507, 0], 
                    [122.56791, 10.70498, 0], 
                    [122.56793, 10.70469, 0], 
                    [122.56793, 10.70465, 0], 
                    [122.56793, 10.70452, 0], 
                    [122.56796, 10.70408, 0], 
                    [122.56797, 10.70383, 0], 
                    [122.56799, 10.70356, 0], 
                    [122.56804, 10.70323, 0], 
                    [122.56806, 10.70303, 0], 
                    [122.56807, 10.70298, 0], 
                    [122.56810, 10.70265, 0], 
                    [122.56810, 10.70261, 0], 
                    [122.56814, 10.70224, 0], 
                    [122.56816, 10.70210, 0], 
                    [122.56828, 10.70183, 0], 
                    [122.56840, 10.70171, 0], 
                    [122.56846, 10.70168, 0], 
                    [122.56885, 10.70157, 0], 
                    [122.56895, 10.70155, 0], 
                    [122.56898, 10.70154, 0], 
                    [122.56902, 10.70153, 0], 
                    [122.56902, 10.70152, 0], 
                    [122.56903, 10.70152, 0], 
                    [122.56903, 10.70151, 0], 
                    [122.56903, 10.70150, 0], 
                    [122.56904, 10.70150, 0], 
                    [122.56904, 10.70149, 0], 
                    [122.56905, 10.70148, 0], 
                    [122.56910, 10.70129, 0], 
                    [122.56911, 10.70096, 0], 
                    [122.56911, 10.70009, 0], 
                    [122.56911, 10.69931, 0], 
                    [122.56907, 10.69914, 0], 
                    [122.56906, 10.69818, 0], 
                    [122.56906, 10.69797, 0], 
                    [122.56906, 10.69795, 0], 
                    [122.56906, 10.69781, 0], 
                    [122.56905, 10.69676, 0], 
                    [122.56905, 10.69667, 0], 
                    [122.56905, 10.69663, 0], 
                    [122.56906, 10.69659, 0], 
                    [122.56907, 10.69658, 0], 
                    [122.56910, 10.69651, 0], 
                    [122.56915, 10.69643, 0], 
                    [122.56927, 10.69629, 0], 
                    [122.56986, 10.69557, 0], 
                    [122.57049, 10.69475, 0], 
                    [122.57050, 10.69474, 0], 
                    [122.57101, 10.69392, 0], 
                    [122.57154, 10.69363, 0], 
                    [122.57162, 10.69358, 0], 
                    [122.57172, 10.69352, 0], 
                    [122.57203, 10.69331, 0], 
                    [122.57257, 10.69292, 0], 
                    [122.57273, 10.69287, 0], 
                    [122.57293, 10.69273, 0], 
                    [122.57336, 10.69232, 0], 
                    [122.57388, 10.69180, 0], 
                    [122.57430, 10.69143, 0], 
                    [122.57480, 10.69106, 0], 
                    [122.57498, 10.69094, 0], 
                    [122.57566, 10.69046, 0], 
                    [122.57642, 10.68993, 0], 
                    [122.57723, 10.68932, 0], 
                    [122.57759, 10.68909, 0], 
                    [122.57793, 10.68888, 0], 
                    [122.57866, 10.68850, 0], 
                    [122.57895, 10.68837, 0], 
                    [122.57920, 10.68827, 0], 
                    [122.57959, 10.68820, 0], 
                    [122.57976, 10.68823, 0], 
                    [122.57986, 10.68827, 0], 
                    [122.57989, 10.68827, 0], 
                    [122.58001, 10.68832, 0], 
                    [122.58016, 10.68838, 0], 
                    [122.58079, 10.68870, 0], 
                    [122.58119, 10.68890, 0], 
                    [122.58120, 10.68891, 0], 
                    [122.58154, 10.68908, 0], 
                    [122.58175, 10.68921, 0], 
                    [122.58182, 10.68926, 0], 
                    [122.58195, 10.68935, 0], 
                    [122.58203, 10.68941, 0], 
                    [122.58211, 10.68950, 0], 
                    [122.58216, 10.68958, 0], 
                    [122.58217, 10.68959, 0], 
                    [122.58219, 10.68966, 0], 
                    [122.58225, 10.68998, 0], 
                    [122.58228, 10.69022, 0], 
                    [122.58225, 10.69030, 0], 
                    [122.58226, 10.69035, 0], 
                    [122.58233, 10.69057, 0], 
                    [122.58238, 10.69076, 0], 
                    [122.58253, 10.69135, 0], 
                    [122.58259, 10.69154, 0], 
                    [122.58277, 10.69222, 0], 
                    [122.58259, 10.69154, 0], 
                    [122.58253, 10.69135, 0], 
                    [122.58238, 10.69076, 0], 
                    [122.58233, 10.69057, 0], 
                    [122.58226, 10.69035, 0], 
                    [122.58225, 10.69030, 0], 
                    [122.58220, 10.69022, 0], 
                    [122.58208, 10.68964, 0], 
                    [122.58200, 10.68953, 0], 
                    [122.58196, 10.68948, 0], 
                    [122.58192, 10.68943, 0], 
                    [122.58187, 10.68940, 0], 
                    [122.58178, 10.68934, 0], 
                    [122.58115, 10.68898, 0], 
                    [122.58092, 10.68886, 0], 
                    [122.58065, 10.68872, 0], 
                    [122.58027, 10.68854, 0], 
                    [122.58004, 10.68843, 0], 
                    [122.57989, 10.68836, 0], 
                    [122.57983, 10.68834, 0], 
                    [122.57979, 10.68832, 0], 
                    [122.57973, 10.68831, 0], 
                    [122.57950, 10.68828, 0], 
                    [122.57941, 10.68828, 0], 
                    [122.57933, 10.68830, 0], 
                    [122.57922, 10.68833, 0], 
                    [122.57908, 10.68838, 0], 
                    [122.57890, 10.68846, 0], 
                    [122.57869, 10.68857, 0], 
                    [122.57829, 10.68876, 0], 
                    [122.57811, 10.68885, 0], 
                    [122.57797, 10.68892, 0], 
                    [122.57789, 10.68899, 0], 
                    [122.57786, 10.68903, 0], 
                    [122.57781, 10.68909, 0], 
                    [122.57777, 10.68915, 0], 
                    [122.57775, 10.68918, 0], 
                    [122.57748, 10.68963, 0], 
                    [122.57734, 10.68985, 0], 
                    [122.57705, 10.69033, 0], 
                    [122.57698, 10.69045, 0], 
                    [122.57691, 10.69052, 0], 
                    [122.57735, 10.69109, 0], 
                    [122.57765, 10.69149, 0], 
                    [122.57767, 10.69151, 0], 
                    [122.57777, 10.69164, 0], 
                    [122.57767, 10.69151, 0], 
                    [122.57765, 10.69149, 0], 
                    [122.57735, 10.69109, 0], 
                    [122.57691, 10.69052, 0], 
                    [122.57689, 10.69054, 0], 
                    [122.57656, 10.69079, 0], 
                    [122.57601, 10.69115, 0], 
                    [122.57549, 10.69148, 0], 
                    [122.57542, 10.69153, 0], 
                    [122.57534, 10.69158, 0], 
                    [122.57508, 10.69177, 0], 
                    [122.57434, 10.69228, 0], 
                    [122.57388, 10.69180, 0], 
                    [122.57341, 10.69227, 0], 
                    [122.57336, 10.69232, 0], 
                    [122.57293, 10.69273, 0], 
                    [122.57273, 10.69287, 0], 
                    [122.57264, 10.69299, 0], 
                    [122.57208, 10.69337, 0], 
                    [122.57207, 10.69338, 0], 
                    [122.57175, 10.69357, 0], 
                    [122.57164, 10.69363, 0], 
                    [122.57156, 10.69368, 0], 
                    [122.57104, 10.69397, 0], 
                    [122.57056, 10.69486, 0], 
                    [122.56992, 10.69561, 0], 
                    [122.56926, 10.69643, 0], 
                    [122.56924, 10.69646, 0], 
                    [122.56921, 10.69654, 0], 
                    [122.56920, 10.69655, 0], 
                    [122.56918, 10.69659, 0], 
                    [122.56917, 10.69662, 0], 
                    [122.56915, 10.69667, 0], 
                    [122.56914, 10.69673, 0], 
                    [122.56913, 10.69684, 0], 
                    [122.56912, 10.69695, 0], 
                    [122.56915, 10.69781, 0], 
                    [122.56914, 10.69795, 0], 
                    [122.56914, 10.69797, 0], 
                    [122.56914, 10.69819, 0], 
                    [122.56916, 10.69914, 0], 
                    [122.56911, 10.69931, 0], 
                    [122.56911, 10.69999, 0], 
                    [122.56911, 10.70009, 0], 
                    [122.56911, 10.70096, 0], 
                    [122.56910, 10.70129, 0], 
                    [122.56915, 10.70140, 0], 
                    [122.56917, 10.70146, 0], 
                    [122.56918, 10.70148, 0], 
                    [122.56919, 10.70148, 0], 
                    [122.56919, 10.70149, 0], 
                    [122.56920, 10.70149, 0], 
                    [122.56920, 10.70150, 0], 
                    [122.56921, 10.70151, 0], 
                    [122.56921, 10.70152, 0], 
                    [122.56921, 10.70153, 0], 
                    [122.56922, 10.70154, 0], 
                    [122.56922, 10.70155, 0], 
                    [122.56922, 10.70156, 0], 
                    [122.56922, 10.70157, 0], 
                    [122.56921, 10.70157, 0], 
                    [122.56921, 10.70158, 0], 
                    [122.56921, 10.70159, 0], 
                    [122.56921, 10.70160, 0], 
                    [122.56920, 10.70160, 0], 
                    [122.56920, 10.70161, 0], 
                    [122.56919, 10.70162, 0], 
                    [122.56918, 10.70163, 0], 
                    [122.56917, 10.70163, 0], 
                    [122.56917, 10.70164, 0], 
                    [122.56916, 10.70164, 0], 
                    [122.56915, 10.70164, 0], 
                    [122.56915, 10.70165, 0], 
                    [122.56914, 10.70165, 0], 
                    [122.56913, 10.70165, 0], 
                    [122.56882, 10.70177, 0], 
                    [122.56871, 10.70180, 0], 
                    [122.56855, 10.70185, 0], 
                    [122.56840, 10.70195, 0], 
                    [122.56834, 10.70203, 0], 
                    [122.56826, 10.70215, 0], 
                    [122.56814, 10.70224, 0], 
                    [122.56810, 10.70261, 0], 
                    [122.56810, 10.70265, 0], 
                    [122.56807, 10.70298, 0], 
                    [122.56806, 10.70303, 0], 
                    [122.56804, 10.70323, 0], 
                    [122.56799, 10.70356, 0], 
                    [122.56797, 10.70383, 0], 
                    [122.56796, 10.70408, 0], 
                    [122.56793, 10.70452, 0], 
                    [122.56793, 10.70465, 0], 
                    [122.56793, 10.70469, 0], 
                    [122.56791, 10.70498, 0], 
                    [122.56790, 10.70507, 0], 
                    [122.56786, 10.70521, 0], 
                    [122.56769, 10.70575, 0], 
                    [122.56752, 10.70627, 0], 
                    [122.56749, 10.70637, 0], 
                    [122.56741, 10.70658, 0], 
                    [122.56740, 10.70663, 0], 
                    [122.56734, 10.70680, 0], 
                    [122.56731, 10.70688, 0], 
                    [122.56728, 10.70698, 0], 
                    [122.56726, 10.70704, 0], 
                    [122.56723, 10.70721, 0], 
                    [122.56720, 10.70733, 0], 
                    [122.56719, 10.70740, 0]  
                ]
            }, 
            "properties": {
                "name": "Directions from GT Town Center Pavia, Pavia, Iloilo to Gaisano Capital City-Iloilo, La Paz, Iloilo City, Iloilo", 
                "styleUrl": "#line-1267FF-5000-nodesc", 
                "stroke-opacity": 1, 
                "stroke": "#1267ff", 
                "stroke-width": 5
            }
        }, 
        {
            "type": "Feature", 
            "geometry": { "type": "Point", "coordinates": [122.5383523, 10.7533792, 0] }, 
            "properties": {
                "name": "GT Town Center Pavia, Pavia, Iloilo", 
                "styleUrl": "#icon-1899-DB4436-nodesc", 
                "label-scale": 0, 
                "icon-opacity": 1, 
                "icon-color": "#db4436", 
                "icon-scale": 1, 
                "icon-offset": [32, 64], 
                "icon-offset-units": ["pixels", "insetPixels"], 
                "icon": "https://www.gstatic.com/mapspro/images/stock/503-wht-blank_maps.png"
            }
        }, 
        {
            "type": "Feature", 
            "geometry": { "type": "Point", "coordinates": [122.5438145, 10.7379901, 0] }, 
            "properties": {
                "name": "CARMELITE MONASTERY, Iloilo East Coast - Capiz Road, Jaro, Iloilo City, Iloilo", 
                "styleUrl": "#icon-1899-DB4436-nodesc", 
                "label-scale": 0, 
                "icon-opacity": 1, 
                "icon-color": "#db4436", 
                "icon-scale": 1, 
                "icon-offset": [32, 64], 
                "icon-offset-units": ["pixels", "insetPixels"], 
                "icon": "https://www.gstatic.com/mapspro/images/stock/503-wht-blank_maps.png"
            }
        }, 
        {
            "type": "Feature", 
            "geometry": { "type": "Point", "coordinates": [122.5592384, 10.7210293, 0] }, 
            "properties": {
                "name": "PHC5+CPC, Jaro, Iloilo City, Iloilo, Philippines", 
                "styleUrl": "#icon-1899-DB4436-nodesc", 
                "label-scale": 0, 
                "icon-opacity": 1, 
                "icon-color": "#db4436", 
                "icon-scale": 1, 
                "icon-offset": [32, 64], 
                "icon-offset-units": ["pixels", "insetPixels"], 
                "icon": "https://www.gstatic.com/mapspro/images/stock/503-wht-blank_maps.png"
            }
        }, 
        {
            "type": "Feature", 
            "geometry": { "type": "Point", "coordinates": [122.5690194, 10.7015273, 0] }, 
            "properties": {
                "name": "Arroyo Fountain, Iznart Street, Iloilo City Proper, Iloilo City, Iloilo", 
                "styleUrl": "#icon-1899-DB4436-nodesc", 
                "label-scale": 0, 
                "icon-opacity": 1, 
                "icon-color": "#db4436", 
                "icon-scale": 1, 
                "icon-offset": [32, 64], 
                "icon-offset-units": ["pixels", "insetPixels"], 
                "icon": "https://www.gstatic.com/mapspro/images/stock/503-wht-blank_maps.png"
            }
        }, 
        {
            "type": "Feature", 
            "geometry": { "type": "Point", "coordinates": [122.5692676, 10.6962877, 0] }, 
            "properties": {
                "name": "Socorro Drug Company, Iznart St. Cor. J.M. Basa St., City Proper, Iloilo City, Iloilo", 
                "styleUrl": "#icon-1899-DB4436-nodesc", 
                "label-scale": 0, 
                "icon-opacity": 1, 
                "icon-color": "#db4436", 
                "icon-scale": 1, 
                "icon-offset": [32, 64], 
                "icon-offset-units": ["pixels", "insetPixels"], 
                "icon": "https://www.gstatic.com/mapspro/images/stock/503-wht-blank_maps.png"
            }
        }, 
        {
            "type": "Feature", 
            "geometry": { "type": "Point", "coordinates": [122.5827724, 10.6922161, 0] }, 
            "properties": {
                "name": "CityMall - Parola, Parola Wharf, Iloilo City Proper, Iloilo City, Iloilo", 
                "styleUrl": "#icon-1899-DB4436-nodesc", 
                "label-scale": 0, 
                "icon-opacity": 1, 
                "icon-color": "#db4436", 
                "icon-scale": 1, 
                "icon-offset": [32, 64], 
                "icon-offset-units": ["pixels", "insetPixels"], 
                "icon": "https://www.gstatic.com/mapspro/images/stock/503-wht-blank_maps.png"
            }
        }, 
        {
            "type": "Feature", 
            "geometry": { "type": "Point", "coordinates": [122.5777668, 10.6916394, 0] }, 
            "properties": {
                "name": "A.Montes ll Elementary School, Duran St, Iloilo City Proper, Iloilo City, Iloilo", 
                "styleUrl": "#icon-1899-DB4436-nodesc", 
                "label-scale": 0, 
                "icon-opacity": 1, 
                "icon-color": "#db4436", 
                "icon-scale": 1, 
                "icon-offset": [32, 64], 
                "icon-offset-units": ["pixels", "insetPixels"], 
                "icon": "https://www.gstatic.com/mapspro/images/stock/503-wht-blank_maps.png"
            }
        }, 
        {
            "type": "Feature", 
            "geometry": { "type": "Point", "coordinates": [122.5734065, 10.6922737, 0] }, 
            "properties": {
                "name": "Plaza Libertad, Zamora Street, Iloilo City Proper, Iloilo City, Iloilo", 
                "styleUrl": "#icon-1899-DB4436-nodesc", 
                "label-scale": 0, 
                "icon-opacity": 1, 
                "icon-color": "#db4436", 
                "icon-scale": 1, 
                "icon-offset": [32, 64], 
                "icon-offset-units": ["pixels", "insetPixels"], 
                "icon": "https://www.gstatic.com/mapspro/images/stock/503-wht-blank_maps.png"
            }
        }, 
        {
            "type": "Feature", 
            "geometry": { "type": "Point", "coordinates": [122.5691099, 10.6999876, 0] }, 
            "properties": {
                "name": "399-A Iznart St, Iloilo City Proper, Iloilo City, Iloilo, Philippines", 
                "styleUrl": "#icon-1899-DB4436-nodesc", 
                "label-scale": 0, 
                "icon-opacity": 1, 
                "icon-color": "#db4436", 
                "icon-scale": 1, 
                "icon-offset": [32, 64], 
                "icon-offset-units": ["pixels", "insetPixels"], 
                "icon": "https://www.gstatic.com/mapspro/images/stock/503-wht-blank_maps.png"
            }
        }, 
        {
            "type": "Feature", 
            "geometry": { "type": "Point", "coordinates": [122.5671856, 10.7073963, 0] }, 
            "properties": {
                "name": "Gaisano Capital City-Iloilo, La Paz, Iloilo City, Iloilo", 
                "styleUrl": "#icon-1899-DB4436-nodesc", 
                "label-scale": 0, 
                "icon-opacity": 1, 
                "icon-color": "#db4436", 
                "icon-scale": 1, 
                "icon-offset": [32, 64], 
                "icon-offset-units": ["pixels", "insetPixels"], 
                "icon": "https://www.gstatic.com/mapspro/images/stock/503-wht-blank_maps.png"
            }
        }, 
        {
            "type": "Feature", 
            "geometry": {
                "type": "LineString", 
                "coordinates": [
                    [122.56719, 10.70740, 0], 
                    [122.56716, 10.70749, 0], 
                    [122.56713, 10.70767, 0], 
                    [122.56710, 10.70778, 0], 
                    [122.56751, 10.70808, 0], 
                    [122.56786, 10.70838, 0], 
                    [122.56772, 10.70851, 0], 
                    [122.56757, 10.70863, 0], 
                    [122.56730, 10.70885, 0], 
                    [122.56710, 10.70901, 0], 
                    [122.56691, 10.70915, 0], 
                    [122.56671, 10.70925, 0], 
                    [122.56667, 10.70931, 0], 
                    [122.56623, 10.71002, 0], 
                    [122.56611, 10.71021, 0], 
                    [122.56603, 10.71035, 0], 
                    [122.56597, 10.71044, 0], 
                    [122.56575, 10.71079, 0], 
                    [122.56572, 10.71085, 0], 
                    [122.56534, 10.71145, 0], 
                    [122.56484, 10.71225, 0], 
                    [122.56472, 10.71244, 0], 
                    [122.56462, 10.71261, 0], 
                    [122.56458, 10.71266, 0], 
                    [122.56454, 10.71273, 0], 
                    [122.56445, 10.71286, 0], 
                    [122.56441, 10.71296, 0], 
                    [122.56414, 10.71346, 0], 
                    [122.56412, 10.71348, 0], 
                    [122.56394, 10.71374, 0], 
                    [122.56360, 10.71425, 0], 
                    [122.56327, 10.71475, 0], 
                    [122.56276, 10.71560, 0], 
                    [122.56266, 10.71567, 0], 
                    [122.56250, 10.71593, 0], 
                    [122.56240, 10.71609, 0], 
                    [122.56216, 10.71644, 0], 
                    [122.56193, 10.71681, 0], 
                    [122.56185, 10.71695, 0], 
                    [122.56162, 10.71731, 0], 
                    [122.56146, 10.71756, 0], 
                    [122.56128, 10.71786, 0], 
                    [122.56103, 10.71827, 0], 
                    [122.56080, 10.71866, 0], 
                    [122.56064, 10.71891, 0], 
                    [122.56025, 10.71950, 0], 
                    [122.55978, 10.72018, 0], 
                    [122.55969, 10.72033, 0], 
                    [122.55959, 10.72049, 0], 
                    [122.55950, 10.72064, 0], 
                    [122.55947, 10.72069, 0], 
                    [122.55934, 10.72088, 0], 
                    [122.55918, 10.72111, 0], 
                    [122.55913, 10.72117, 0], 
                    [122.55889, 10.72153, 0], 
                    [122.55877, 10.72170, 0], 
                    [122.55829, 10.72235, 0], 
                    [122.55795, 10.72278, 0], 
                    [122.55768, 10.72314, 0], 
                    [122.55760, 10.72327, 0], 
                    [122.55788, 10.72348, 0], 
                    [122.55835, 10.72400, 0], 
                    [122.55817, 10.72424, 0], 
                    [122.55806, 10.72435, 0], 
                    [122.55776, 10.72474, 0], 
                    [122.55775, 10.72475, 0], 
                    [122.55732, 10.72527, 0], 
                    [122.55712, 10.72554, 0], 
                    [122.55740, 10.72565, 0], 
                    [122.55760, 10.72575, 0], 
                    [122.55766, 10.72580, 0], 
                    [122.55770, 10.72583, 0], 
                    [122.55773, 10.72588, 0], 
                    [122.55776, 10.72594, 0], 
                    [122.55780, 10.72606, 0], 
                    [122.55784, 10.72619, 0], 
                    [122.55786, 10.72627, 0], 
                    [122.55799, 10.72677, 0], 
                    [122.55803, 10.72694, 0], 
                    [122.55796, 10.72704, 0], 
                    [122.55777, 10.72730, 0], 
                    [122.55764, 10.72749, 0], 
                    [122.55746, 10.72774, 0], 
                    [122.55733, 10.72790, 0], 
                    [122.55709, 10.72818, 0], 
                    [122.55708, 10.72819, 0], 
                    [122.55670, 10.72856, 0], 
                    [122.55665, 10.72851, 0], 
                    [122.55563, 10.72747, 0], 
                    [122.55559, 10.72751, 0], 
                    [122.55549, 10.72762, 0], 
                    [122.55514, 10.72797, 0], 
                    [122.55507, 10.72804, 0], 
                    [122.55462, 10.72848, 0], 
                    [122.55426, 10.72881, 0], 
                    [122.55421, 10.72885, 0], 
                    [122.55365, 10.72936, 0], 
                    [122.55345, 10.72956, 0], 
                    [122.55332, 10.72967, 0], 
                    [122.55273, 10.73022, 0], 
                    [122.55234, 10.73059, 0], 
                    [122.55228, 10.73065, 0], 
                    [122.55227, 10.73066, 0], 
                    [122.55206, 10.73084, 0], 
                    [122.55170, 10.73118, 0], 
                    [122.55131, 10.73153, 0], 
                    [122.55113, 10.73168, 0], 
                    [122.55096, 10.73182, 0], 
                    [122.55060, 10.73213, 0], 
                    [122.55057, 10.73216, 0], 
                    [122.55048, 10.73222, 0], 
                    [122.55026, 10.73240, 0], 
                    [122.54923, 10.73322, 0], 
                    [122.54907, 10.73336, 0], 
                    [122.54906, 10.73337, 0], 
                    [122.54878, 10.73360, 0], 
                    [122.54840, 10.73393, 0], 
                    [122.54836, 10.73397, 0], 
                    [122.54830, 10.73402, 0], 
                    [122.54794, 10.73434, 0], 
                    [122.54760, 10.73464, 0], 
                    [122.54745, 10.73477, 0], 
                    [122.54717, 10.73500, 0], 
                    [122.54695, 10.73519, 0], 
                    [122.54670, 10.73540, 0], 
                    [122.54614, 10.73590, 0], 
                    [122.54601, 10.73602, 0], 
                    [122.54579, 10.73622, 0], 
                    [122.54536, 10.73660, 0], 
                    [122.54512, 10.73682, 0], 
                    [122.54503, 10.73691, 0], 
                    [122.54466, 10.73724, 0], 
                    [122.54448, 10.73738, 0], 
                    [122.54430, 10.73755, 0], 
                    [122.54343, 10.73834, 0], 
                    [122.54279, 10.73898, 0], 
                    [122.54227, 10.73946, 0], 
                    [122.54191, 10.73979, 0], 
                    [122.54137, 10.74028, 0], 
                    [122.54101, 10.74060, 0], 
                    [122.54088, 10.74075, 0], 
                    [122.54066, 10.74103, 0], 
                    [122.54056, 10.74114, 0], 
                    [122.54047, 10.74130, 0], 
                    [122.54045, 10.74133, 0], 
                    [122.54014, 10.74167, 0], 
                    [122.54003, 10.74176, 0], 
                    [122.53987, 10.74186, 0], 
                    [122.53974, 10.74194, 0], 
                    [122.53964, 10.74199, 0], 
                    [122.53950, 10.74205, 0], 
                    [122.53933, 10.74212, 0], 
                    [122.53945, 10.74262, 0], 
                    [122.53949, 10.74280, 0], 
                    [122.53953, 10.74299, 0], 
                    [122.53955, 10.74313, 0], 
                    [122.53956, 10.74316, 0], 
                    [122.53959, 10.74337, 0], 
                    [122.53960, 10.74353, 0], 
                    [122.53962, 10.74369, 0], 
                    [122.53962, 10.74383, 0], 
                    [122.53962, 10.74394, 0], 
                    [122.53961, 10.74414, 0], 
                    [122.53960, 10.74427, 0], 
                    [122.53958, 10.74457, 0], 
                    [122.53957, 10.74464, 0], 
                    [122.53955, 10.74477, 0], 
                    [122.53964, 10.74479, 0], 
                    [122.53972, 10.74481, 0], 
                    [122.53978, 10.74483, 0], 
                    [122.53984, 10.74486, 0], 
                    [122.53992, 10.74490, 0], 
                    [122.54001, 10.74497, 0], 
                    [122.54007, 10.74503, 0], 
                    [122.54012, 10.74508, 0], 
                    [122.54015, 10.74513, 0], 
                    [122.54020, 10.74532, 0], 
                    [122.54021, 10.74538, 0], 
                    [122.54022, 10.74544, 0], 
                    [122.54023, 10.74559, 0], 
                    [122.54026, 10.74564, 0], 
                    [122.54028, 10.74566, 0], 
                    [122.54031, 10.74570, 0], 
                    [122.54034, 10.74571, 0], 
                    [122.54038, 10.74572, 0], 
                    [122.54043, 10.74573, 0], 
                    [122.54045, 10.74573, 0], 
                    [122.54093, 10.74580, 0], 
                    [122.54098, 10.74580, 0], 
                    [122.54101, 10.74580, 0], 
                    [122.54105, 10.74580, 0], 
                    [122.54111, 10.74578, 0], 
                    [122.54114, 10.74576, 0]  
                ]
            }, 
            "properties": {
                "name": "Directions from Gaisano Capital City-Iloilo, La Paz, Iloilo City, Iloilo to CHRIST THE KING MEMORIAL PARK, Diversion Rd, Jaro, Iloilo City, Iloilo", 
                "styleUrl": "#line-1267FF-5000-nodesc", 
                "stroke-opacity": 1, 
                "stroke": "#1267ff", 
                "stroke-width": 5
            }
        }, 
        {
            "type": "Feature", 
            "geometry": { "type": "Point", "coordinates": [122.5671856, 10.7073963, 0] }, 
            "properties": {
                "name": "Gaisano Capital City-Iloilo, La Paz, Iloilo City, Iloilo", 
                "styleUrl": "#icon-1899-DB4436-nodesc", 
                "label-scale": 0, 
                "icon-opacity": 1, 
                "icon-color": "#db4436", 
                "icon-scale": 1, 
                "icon-offset": [32, 64], 
                "icon-offset-units": ["pixels", "insetPixels"], 
                "icon": "https://www.gstatic.com/mapspro/images/stock/503-wht-blank_maps.png"
            }
        }, 
        {
            "type": "Feature", 
            "geometry": { "type": "Point", "coordinates": [122.5675671, 10.7086308, 0] }, 
            "properties": {
                "name": "Lapaz Public Market, Huervana Street, La Paz, Iloilo City, Iloilo", 
                "styleUrl": "#icon-1899-DB4436-nodesc", 
                "label-scale": 0, 
                "icon-opacity": 1, 
                "icon-color": "#db4436", 
                "icon-scale": 1, 
                "icon-offset": [32, 64], 
                "icon-offset-units": ["pixels", "insetPixels"], 
                "icon": "https://www.gstatic.com/mapspro/images/stock/503-wht-blank_maps.png"
            }
        }, 
        {
            "type": "Feature", 
            "geometry": { "type": "Point", "coordinates": [122.55776, 10.7247369, 0] }, 
            "properties": {
                "name": "Jaro Plaza, Plaza Rizal Street, Jaro, Iloilo City, Iloilo", 
                "styleUrl": "#icon-1899-DB4436-nodesc", 
                "label-scale": 0, 
                "icon-opacity": 1, 
                "icon-color": "#db4436", 
                "icon-scale": 1, 
                "icon-offset": [32, 64], 
                "icon-offset-units": ["pixels", "insetPixels"], 
                "icon": "https://www.gstatic.com/mapspro/images/stock/503-wht-blank_maps.png"
            }
        }, 
        {
            "type": "Feature", 
            "geometry": { "type": "Point", "coordinates": [122.5579864, 10.7267706, 0] }, 
            "properties": {
                "name": "TIBIAO BAKERY, Washington Street, Jaro, Iloilo City, Iloilo", 
                "styleUrl": "#icon-1899-DB4436-nodesc", 
                "label-scale": 0, 
                "icon-opacity": 1, 
                "icon-color": "#db4436", 
                "icon-scale": 1, 
                "icon-offset": [32, 64], 
                "icon-offset-units": ["pixels", "insetPixels"], 
                "icon": "https://www.gstatic.com/mapspro/images/stock/503-wht-blank_maps.png"
            }
        }, 
        {
            "type": "Feature", 
            "geometry": { "type": "Point", "coordinates": [122.5551388, 10.7279704, 0] }, 
            "properties": {
                "name": "Iloilo Baptist church, Jaro, Iloilo City, Iloilo", 
                "styleUrl": "#icon-1899-DB4436-nodesc", 
                "label-scale": 0, 
                "icon-opacity": 1, 
                "icon-color": "#db4436", 
                "icon-scale": 1, 
                "icon-offset": [32, 64], 
                "icon-offset-units": ["pixels", "insetPixels"], 
                "icon": "https://www.gstatic.com/mapspro/images/stock/503-wht-blank_maps.png"
            }
        }, 
        {
            "type": "Feature", 
            "geometry": { "type": "Point", "coordinates": [122.5411428, 10.7457608, 0] }, 
            "properties": {
                "name": "CHRIST THE KING MEMORIAL PARK, Diversion Rd, Jaro, Iloilo City, Iloilo", 
                "styleUrl": "#icon-1899-DB4436-nodesc", 
                "label-scale": 0, 
                "icon-opacity": 1, 
                "icon-color": "#db4436", 
                "icon-scale": 1, 
                "icon-offset": [32, 64], 
                "icon-offset-units": ["pixels", "insetPixels"], 
                "icon": "https://www.gstatic.com/mapspro/images/stock/503-wht-blank_maps.png"
            }
        }
    ]
}
