{
    "type": "FeatureCollection", 
    "features": [
        {
            "type": "Feature", 
            "geometry": {
                "type": "LineString", 
                "coordinates": [
                    [122.56719, 10.70740, 0], 
                    [122.56716, 10.70749, 0], 
                    [122.56713, 10.70767, 0], 
                    [122.56710, 10.70778, 0], 
                    [122.56751, 10.70808, 0], 
                    [122.56786, 10.70838, 0], 
                    [122.56772, 10.70851, 0], 
                    [122.56757, 10.70863, 0], 
                    [122.56730, 10.70885, 0], 
                    [122.56710, 10.70901, 0], 
                    [122.56691, 10.70915, 0], 
                    [122.56671, 10.70925, 0], 
                    [122.56667, 10.70931, 0], 
                    [122.56623, 10.71002, 0], 
                    [122.56611, 10.71021, 0], 
                    [122.56603, 10.71035, 0], 
                    [122.56597, 10.71044, 0], 
                    [122.56575, 10.71079, 0], 
                    [122.56572, 10.71085, 0], 
                    [122.56534, 10.71145, 0], 
                    [122.56484, 10.71225, 0], 
                    [122.56472, 10.71244, 0], 
                    [122.56462, 10.71261, 0], 
                    [122.56458, 10.71266, 0], 
                    [122.56454, 10.71273, 0], 
                    [122.56445, 10.71286, 0], 
                    [122.56441, 10.71296, 0], 
                    [122.56414, 10.71346, 0], 
                    [122.56412, 10.71348, 0], 
                    [122.56394, 10.71374, 0], 
                    [122.56360, 10.71425, 0], 
                    [122.56327, 10.71475, 0], 
                    [122.56276, 10.71560, 0], 
                    [122.56266, 10.71567, 0], 
                    [122.56250, 10.71593, 0], 
                    [122.56240, 10.71609, 0], 
                    [122.56216, 10.71644, 0], 
                    [122.56193, 10.71681, 0], 
                    [122.56185, 10.71695, 0], 
                    [122.56162, 10.71731, 0], 
                    [122.56146, 10.71756, 0], 
                    [122.56128, 10.71786, 0], 
                    [122.56103, 10.71827, 0], 
                    [122.56080, 10.71866, 0], 
                    [122.56064, 10.71891, 0], 
                    [122.56025, 10.71950, 0], 
                    [122.55978, 10.72018, 0], 
                    [122.55969, 10.72033, 0], 
                    [122.55959, 10.72049, 0], 
                    [122.55950, 10.72064, 0], 
                    [122.55947, 10.72069, 0], 
                    [122.55934, 10.72088, 0], 
                    [122.55918, 10.72111, 0], 
                    [122.55913, 10.72117, 0], 
                    [122.55889, 10.72153, 0], 
                    [122.55877, 10.72170, 0], 
                    [122.55829, 10.72235, 0], 
                    [122.55795, 10.72278, 0], 
                    [122.55768, 10.72314, 0], 
                    [122.55760, 10.72327, 0], 
                    [122.55788, 10.72348, 0], 
                    [122.55835, 10.72400, 0], 
                    [122.55817, 10.72424, 0], 
                    [122.55806, 10.72435, 0], 
                    [122.55776, 10.72474, 0], 
                    [122.55775, 10.72475, 0], 
                    [122.55732, 10.72527, 0], 
                    [122.55712, 10.72554, 0], 
                    [122.55740, 10.72565, 0], 
                    [122.55760, 10.72575, 0], 
                    [122.55766, 10.72580, 0], 
                    [122.55770, 10.72583, 0], 
                    [122.55773, 10.72588, 0], 
                    [122.55776, 10.72594, 0], 
                    [122.55780, 10.72606, 0], 
                    [122.55784, 10.72619, 0], 
                    [122.55786, 10.72627, 0], 
                    [122.55799, 10.72677, 0], 
                    [122.55803, 10.72694, 0], 
                    [122.55796, 10.72704, 0], 
                    [122.55777, 10.72730, 0], 
                    [122.55764, 10.72749, 0], 
                    [122.55746, 10.72774, 0], 
                    [122.55733, 10.72790, 0], 
                    [122.55709, 10.72818, 0], 
                    [122.55708, 10.72819, 0], 
                    [122.55670, 10.72856, 0], 
                    [122.55665, 10.72851, 0], 
                    [122.55563, 10.72747, 0], 
                    [122.55559, 10.72751, 0], 
                    [122.55549, 10.72762, 0], 
                    [122.55514, 10.72797, 0], 
                    [122.55507, 10.72804, 0], 
                    [122.55462, 10.72848, 0], 
                    [122.55426, 10.72881, 0], 
                    [122.55421, 10.72885, 0], 
                    [122.55365, 10.72936, 0], 
                    [122.55345, 10.72956, 0], 
                    [122.55332, 10.72967, 0], 
                    [122.55273, 10.73022, 0], 
                    [122.55234, 10.73059, 0], 
                    [122.55228, 10.73065, 0], 
                    [122.55227, 10.73066, 0], 
                    [122.55206, 10.73084, 0], 
                    [122.55170, 10.73118, 0], 
                    [122.55131, 10.73153, 0], 
                    [122.55113, 10.73168, 0], 
                    [122.55096, 10.73182, 0], 
                    [122.55060, 10.73213, 0], 
                    [122.55057, 10.73216, 0], 
                    [122.55048, 10.73222, 0], 
                    [122.55026, 10.73240, 0], 
                    [122.54923, 10.73322, 0], 
                    [122.54907, 10.73336, 0], 
                    [122.54906, 10.73337, 0], 
                    [122.54878, 10.73360, 0], 
                    [122.54840, 10.73393, 0], 
                    [122.54836, 10.73397, 0], 
                    [122.54830, 10.73402, 0], 
                    [122.54794, 10.73434, 0], 
                    [122.54760, 10.73464, 0], 
                    [122.54745, 10.73477, 0], 
                    [122.54717, 10.73500, 0], 
                    [122.54695, 10.73519, 0], 
                    [122.54670, 10.73540, 0], 
                    [122.54614, 10.73590, 0], 
                    [122.54601, 10.73602, 0], 
                    [122.54579, 10.73622, 0], 
                    [122.54536, 10.73660, 0], 
                    [122.54512, 10.73682, 0], 
                    [122.54503, 10.73691, 0], 
                    [122.54466, 10.73724, 0], 
                    [122.54448, 10.73738, 0], 
                    [122.54430, 10.73755, 0], 
                    [122.54343, 10.73834, 0], 
                    [122.54279, 10.73898, 0], 
                    [122.54227, 10.73946, 0], 
                    [122.54191, 10.73979, 0], 
                    [122.54137, 10.74028, 0], 
                    [122.54101, 10.74060, 0], 
                    [122.54088, 10.74075, 0], 
                    [122.54066, 10.74103, 0], 
                    [122.54056, 10.74114, 0], 
                    [122.54047, 10.74130, 0], 
                    [122.54045, 10.74133, 0], 
                    [122.54014, 10.74167, 0], 
                    [122.54003, 10.74176, 0], 
                    [122.53987, 10.74186, 0], 
                    [122.53974, 10.74194, 0], 
                    [122.53964, 10.74199, 0], 
                    [122.53950, 10.74205, 0], 
                    [122.53933, 10.74212, 0], 
                    [122.53945, 10.74262, 0], 
                    [122.53949, 10.74280, 0], 
                    [122.53953, 10.74299, 0], 
                    [122.53955, 10.74313, 0], 
                    [122.53956, 10.74316, 0], 
                    [122.53959, 10.74337, 0], 
                    [122.53960, 10.74353, 0], 
                    [122.53962, 10.74369, 0], 
                    [122.53962, 10.74383, 0], 
                    [122.53962, 10.74394, 0], 
                    [122.53961, 10.74414, 0], 
                    [122.53960, 10.74427, 0], 
                    [122.53958, 10.74457, 0], 
                    [122.53957, 10.74464, 0], 
                    [122.53955, 10.74477, 0], 
                    [122.53964, 10.74479, 0], 
                    [122.53972, 10.74481, 0], 
                    [122.53978, 10.74483, 0], 
                    [122.53984, 10.74486, 0], 
                    [122.53992, 10.74490, 0], 
                    [122.54001, 10.74497, 0], 
                    [122.54007, 10.74503, 0], 
                    [122.54012, 10.74508, 0], 
                    [122.54015, 10.74513, 0], 
                    [122.54020, 10.74532, 0], 
                    [122.54021, 10.74538, 0], 
                    [122.54022, 10.74544, 0], 
                    [122.54023, 10.74559, 0], 
                    [122.54026, 10.74564, 0], 
                    [122.54028, 10.74566, 0], 
                    [122.54031, 10.74570, 0], 
                    [122.54034, 10.74571, 0], 
                    [122.54038, 10.74572, 0], 
                    [122.54043, 10.74573, 0], 
                    [122.54045, 10.74573, 0], 
                    [122.54093, 10.74580, 0], 
                    [122.54098, 10.74580, 0], 
                    [122.54101, 10.74580, 0], 
                    [122.54105, 10.74580, 0], 
                    [122.54111, 10.74578, 0], 
                    [122.54114, 10.74576, 0]  
                ]
            }, 
            "properties": {
                "name": "Directions from Gaisano Capital City-Iloilo, La Paz, Iloilo City, Iloilo to CHRIST THE KING MEMORIAL PARK, Diversion Rd, Jaro, Iloilo City, Iloilo", 
                "styleUrl": "#line-1267FF-5000-nodesc", 
                "stroke-opacity": 1, 
                "stroke": "#1267ff", 
                "stroke-width": 5
            }
        }, 
        {
            "type": "Feature", 
            "geometry": { "type": "Point", "coordinates": [122.5671856, 10.7073963, 0] }, 
            "properties": {
                "name": "Gaisano Capital City-Iloilo, La Paz, Iloilo City, Iloilo", 
                "styleUrl": "#icon-1899-DB4436-nodesc", 
                "label-scale": 0, 
                "icon-opacity": 1, 
                "icon-color": "#db4436", 
                "icon-scale": 1, 
                "icon-offset": [32, 64], 
                "icon-offset-units": ["pixels", "insetPixels"], 
                "icon": "https://www.gstatic.com/mapspro/images/stock/503-wht-blank_maps.png"
            }
        }, 
        {
            "type": "Feature", 
            "geometry": { "type": "Point", "coordinates": [122.5675671, 10.7086308, 0] }, 
            "properties": {
                "name": "Lapaz Public Market, Huervana Street, La Paz, Iloilo City, Iloilo", 
                "styleUrl": "#icon-1899-DB4436-nodesc", 
                "label-scale": 0, 
                "icon-opacity": 1, 
                "icon-color": "#db4436", 
                "icon-scale": 1, 
                "icon-offset": [32, 64], 
                "icon-offset-units": ["pixels", "insetPixels"], 
                "icon": "https://www.gstatic.com/mapspro/images/stock/503-wht-blank_maps.png"
            }
        }, 
        {
            "type": "Feature", 
            "geometry": { "type": "Point", "coordinates": [122.55776, 10.7247369, 0] }, 
            "properties": {
                "name": "Jaro Plaza, Plaza Rizal Street, Jaro, Iloilo City, Iloilo", 
                "styleUrl": "#icon-1899-DB4436-nodesc", 
                "label-scale": 0, 
                "icon-opacity": 1, 
                "icon-color": "#db4436", 
                "icon-scale": 1, 
                "icon-offset": [32, 64], 
                "icon-offset-units": ["pixels", "insetPixels"], 
                "icon": "https://www.gstatic.com/mapspro/images/stock/503-wht-blank_maps.png"
            }
        }, 
        {
            "type": "Feature", 
            "geometry": { "type": "Point", "coordinates": [122.5579864, 10.7267706, 0] }, 
            "properties": {
                "name": "TIBIAO BAKERY, Washington Street, Jaro, Iloilo City, Iloilo", 
                "styleUrl": "#icon-1899-DB4436-nodesc", 
                "label-scale": 0, 
                "icon-opacity": 1, 
                "icon-color": "#db4436", 
                "icon-scale": 1, 
                "icon-offset": [32, 64], 
                "icon-offset-units": ["pixels", "insetPixels"], 
                "icon": "https://www.gstatic.com/mapspro/images/stock/503-wht-blank_maps.png"
            }
        }, 
        {
            "type": "Feature", 
            "geometry": { "type": "Point", "coordinates": [122.5551388, 10.7279704, 0] }, 
            "properties": {
                "name": "Iloilo Baptist church, Jaro, Iloilo City, Iloilo", 
                "styleUrl": "#icon-1899-DB4436-nodesc", 
                "label-scale": 0, 
                "icon-opacity": 1, 
                "icon-color": "#db4436", 
                "icon-scale": 1, 
                "icon-offset": [32, 64], 
                "icon-offset-units": ["pixels", "insetPixels"], 
                "icon": "https://www.gstatic.com/mapspro/images/stock/503-wht-blank_maps.png"
            }
        }, 
        {
            "type": "Feature", 
            "geometry": { "type": "Point", "coordinates": [122.5411428, 10.7457608, 0] }, 
            "properties": {
                "name": "CHRIST THE KING MEMORIAL PARK, Diversion Rd, Jaro, Iloilo City, Iloilo", 
                "styleUrl": "#icon-1899-DB4436-nodesc", 
                "label-scale": 0, 
                "icon-opacity": 1, 
                "icon-color": "#db4436", 
                "icon-scale": 1, 
                "icon-offset": [32, 64], 
                "icon-offset-units": ["pixels", "insetPixels"], 
                "icon": "https://www.gstatic.com/mapspro/images/stock/503-wht-blank_maps.png"
            }
        }
    ]
}
