{
    "type": "FeatureCollection", 
    "features": [
        {
            "type": "Feature", 
            "geometry": {
                "type": "LineString", 
                "coordinates": [
                    [122.57779, 10.76215, 0], 
                    [122.57722, 10.76128, 0], 
                    [122.57733, 10.76121, 0], 
                    [122.57709, 10.76086, 0], 
                    [122.57705, 10.76080, 0], 
                    [122.57698, 10.76070, 0], 
                    [122.57665, 10.76020, 0], 
                    [122.57622, 10.75956, 0], 
                    [122.57618, 10.75950, 0], 
                    [122.57606, 10.75931, 0], 
                    [122.57587, 10.75901, 0], 
                    [122.57542, 10.75831, 0], 
                    [122.57484, 10.75741, 0], 
                    [122.57468, 10.75717, 0], 
                    [122.57455, 10.75697, 0], 
                    [122.57414, 10.75639, 0], 
                    [122.57388, 10.75602, 0], 
                    [122.57362, 10.75564, 0], 
                    [122.57340, 10.75534, 0], 
                    [122.57325, 10.75512, 0], 
                    [122.57299, 10.75475, 0], 
                    [122.57279, 10.75445, 0], 
                    [122.57266, 10.75428, 0], 
                    [122.57241, 10.75389, 0], 
                    [122.57218, 10.75353, 0], 
                    [122.57203, 10.75335, 0], 
                    [122.57192, 10.75318, 0], 
                    [122.57159, 10.75271, 0], 
                    [122.57157, 10.75270, 0], 
                    [122.57156, 10.75269, 0], 
                    [122.57154, 10.75269, 0], 
                    [122.57153, 10.75268, 0], 
                    [122.57152, 10.75267, 0], 
                    [122.57151, 10.75266, 0], 
                    [122.57150, 10.75264, 0], 
                    [122.57148, 10.75262, 0], 
                    [122.57117, 10.75216, 0], 
                    [122.57072, 10.75148, 0], 
                    [122.57058, 10.75126, 0], 
                    [122.57055, 10.75122, 0], 
                    [122.57007, 10.75053, 0], 
                    [122.57000, 10.75043, 0], 
                    [122.56973, 10.74997, 0], 
                    [122.56965, 10.74985, 0], 
                    [122.56927, 10.74924, 0], 
                    [122.56917, 10.74905, 0], 
                    [122.56887, 10.74853, 0], 
                    [122.56836, 10.74773, 0], 
                    [122.56804, 10.74722, 0], 
                    [122.56784, 10.74693, 0], 
                    [122.56675, 10.74523, 0], 
                    [122.56672, 10.74519, 0], 
                    [122.56669, 10.74515, 0], 
                    [122.56629, 10.74456, 0], 
                    [122.56588, 10.74393, 0], 
                    [122.56540, 10.74321, 0], 
                    [122.56480, 10.74235, 0], 
                    [122.56454, 10.74196, 0], 
                    [122.56443, 10.74180, 0], 
                    [122.56431, 10.74162, 0], 
                    [122.56396, 10.74111, 0], 
                    [122.56392, 10.74105, 0], 
                    [122.56368, 10.74066, 0], 
                    [122.56342, 10.74023, 0], 
                    [122.56319, 10.73986, 0], 
                    [122.56316, 10.73978, 0], 
                    [122.56280, 10.73917, 0], 
                    [122.56257, 10.73875, 0], 
                    [122.56243, 10.73851, 0], 
                    [122.56234, 10.73835, 0], 
                    [122.56216, 10.73801, 0], 
                    [122.56191, 10.73753, 0], 
                    [122.56187, 10.73744, 0], 
                    [122.56169, 10.73707, 0], 
                    [122.56140, 10.73647, 0], 
                    [122.56120, 10.73608, 0], 
                    [122.56106, 10.73578, 0], 
                    [122.56094, 10.73549, 0], 
                    [122.56067, 10.73473, 0], 
                    [122.56051, 10.73424, 0], 
                    [122.56047, 10.73412, 0], 
                    [122.56011, 10.73299, 0], 
                    [122.55997, 10.73256, 0], 
                    [122.55996, 10.73253, 0], 
                    [122.55986, 10.73226, 0], 
                    [122.55967, 10.73167, 0], 
                    [122.55961, 10.73150, 0], 
                    [122.55958, 10.73140, 0], 
                    [122.55953, 10.73123, 0], 
                    [122.55951, 10.73117, 0], 
                    [122.55947, 10.73106, 0], 
                    [122.55937, 10.73075, 0], 
                    [122.55911, 10.73018, 0], 
                    [122.55906, 10.73006, 0], 
                    [122.55879, 10.72985, 0], 
                    [122.55860, 10.72975, 0], 
                    [122.55792, 10.72949, 0], 
                    [122.55767, 10.72937, 0], 
                    [122.55728, 10.72916, 0], 
                    [122.55705, 10.72896, 0], 
                    [122.55695, 10.72887, 0], 
                    [122.55670, 10.72856, 0], 
                    [122.55665, 10.72851, 0], 
                    [122.55563, 10.72747, 0], 
                    [122.55603, 10.72697, 0], 
                    [122.55644, 10.72648, 0], 
                    [122.55712, 10.72554, 0], 
                    [122.55703, 10.72555, 0], 
                    [122.55694, 10.72548, 0], 
                    [122.55681, 10.72533, 0], 
                    [122.55658, 10.72503, 0], 
                    [122.55635, 10.72470, 0], 
                    [122.55639, 10.72460, 0], 
                    [122.55642, 10.72454, 0], 
                    [122.55645, 10.72449, 0], 
                    [122.55650, 10.72441, 0], 
                    [122.55662, 10.72427, 0], 
                    [122.55674, 10.72417, 0], 
                    [122.55686, 10.72407, 0], 
                    [122.55693, 10.72400, 0], 
                    [122.55726, 10.72368, 0], 
                    [122.55760, 10.72327, 0], 
                    [122.55788, 10.72348, 0], 
                    [122.55835, 10.72400, 0], 
                    [122.55866, 10.72364, 0], 
                    [122.55904, 10.72318, 0], 
                    [122.55927, 10.72293, 0], 
                    [122.55969, 10.72250, 0], 
                    [122.56024, 10.72197, 0], 
                    [122.56025, 10.72196, 0], 
                    [122.56071, 10.72156, 0], 
                    [122.56097, 10.72132, 0], 
                    [122.56104, 10.72127, 0], 
                    [122.56113, 10.72119, 0], 
                    [122.56120, 10.72113, 0], 
                    [122.56165, 10.72071, 0], 
                    [122.56185, 10.72052, 0], 
                    [122.56225, 10.72015, 0], 
                    [122.56258, 10.71982, 0], 
                    [122.56294, 10.71947, 0], 
                    [122.56353, 10.71887, 0], 
                    [122.56323, 10.71852, 0], 
                    [122.56185, 10.71695, 0], 
                    [122.56193, 10.71681, 0], 
                    [122.56216, 10.71644, 0], 
                    [122.56240, 10.71609, 0], 
                    [122.56250, 10.71593, 0], 
                    [122.56266, 10.71567, 0], 
                    [122.56269, 10.71555, 0], 
                    [122.56320, 10.71470, 0], 
                    [122.56353, 10.71421, 0], 
                    [122.56388, 10.71369, 0], 
                    [122.56406, 10.71345, 0], 
                    [122.56408, 10.71342, 0], 
                    [122.56415, 10.71331, 0], 
                    [122.56424, 10.71315, 0], 
                    [122.56437, 10.71293, 0], 
                    [122.56445, 10.71286, 0], 
                    [122.56454, 10.71273, 0], 
                    [122.56458, 10.71266, 0], 
                    [122.56462, 10.71261, 0], 
                    [122.56472, 10.71244, 0], 
                    [122.56482, 10.71223, 0], 
                    [122.56531, 10.71143, 0], 
                    [122.56549, 10.71114, 0], 
                    [122.56569, 10.71082, 0], 
                    [122.56572, 10.71077, 0], 
                    [122.56594, 10.71042, 0], 
                    [122.56599, 10.71033, 0], 
                    [122.56608, 10.71020, 0], 
                    [122.56620, 10.71000, 0], 
                    [122.56662, 10.70931, 0], 
                    [122.56666, 10.70925, 0], 
                    [122.56667, 10.70919, 0], 
                    [122.56669, 10.70913, 0], 
                    [122.56671, 10.70907, 0], 
                    [122.56673, 10.70898, 0], 
                    [122.56702, 10.70807, 0], 
                    [122.56710, 10.70778, 0], 
                    [122.56713, 10.70767, 0], 
                    [122.56716, 10.70749, 0], 
                    [122.56720, 10.70733, 0], 
                    [122.56723, 10.70721, 0], 
                    [122.56726, 10.70704, 0], 
                    [122.56728, 10.70698, 0], 
                    [122.56731, 10.70688, 0], 
                    [122.56734, 10.70680, 0], 
                    [122.56740, 10.70663, 0], 
                    [122.56741, 10.70658, 0], 
                    [122.56749, 10.70637, 0], 
                    [122.56752, 10.70627, 0], 
                    [122.56769, 10.70575, 0], 
                    [122.56786, 10.70521, 0], 
                    [122.56790, 10.70507, 0], 
                    [122.56791, 10.70498, 0], 
                    [122.56793, 10.70469, 0], 
                    [122.56793, 10.70465, 0], 
                    [122.56793, 10.70452, 0], 
                    [122.56796, 10.70408, 0], 
                    [122.56797, 10.70383, 0], 
                    [122.56799, 10.70356, 0], 
                    [122.56804, 10.70323, 0], 
                    [122.56806, 10.70303, 0], 
                    [122.56807, 10.70298, 0], 
                    [122.56810, 10.70265, 0], 
                    [122.56810, 10.70261, 0], 
                    [122.56814, 10.70224, 0], 
                    [122.56816, 10.70210, 0], 
                    [122.56828, 10.70183, 0], 
                    [122.56827, 10.70182, 0], 
                    [122.56813, 10.70170, 0], 
                    [122.56806, 10.70165, 0], 
                    [122.56802, 10.70162, 0], 
                    [122.56798, 10.70161, 0], 
                    [122.56792, 10.70159, 0], 
                    [122.56785, 10.70158, 0], 
                    [122.56772, 10.70155, 0], 
                    [122.56763, 10.70154, 0], 
                    [122.56760, 10.70153, 0], 
                    [122.56705, 10.70146, 0], 
                    [122.56695, 10.70145, 0], 
                    [122.56646, 10.70138, 0], 
                    [122.56588, 10.70130, 0], 
                    [122.56552, 10.70125, 0], 
                    [122.56549, 10.70125, 0], 
                    [122.56539, 10.70123, 0], 
                    [122.56520, 10.70121, 0], 
                    [122.56484, 10.70116, 0], 
                    [122.56446, 10.70110, 0], 
                    [122.56390, 10.70101, 0], 
                    [122.56385, 10.70100, 0], 
                    [122.56353, 10.70095, 0], 
                    [122.56345, 10.70094, 0], 
                    [122.56307, 10.70088, 0], 
                    [122.56300, 10.70087, 0], 
                    [122.56288, 10.70088, 0], 
                    [122.56274, 10.70087, 0], 
                    [122.56248, 10.70084, 0], 
                    [122.56218, 10.70079, 0], 
                    [122.56175, 10.70071, 0], 
                    [122.56177, 10.70059, 0], 
                    [122.56178, 10.70041, 0], 
                    [122.56177, 10.69997, 0], 
                    [122.56175, 10.69947, 0], 
                    [122.56174, 10.69894, 0], 
                    [122.56174, 10.69876, 0], 
                    [122.56175, 10.69804, 0], 
                    [122.56175, 10.69788, 0], 
                    [122.56173, 10.69726, 0], 
                    [122.56172, 10.69681, 0], 
                    [122.56172, 10.69667, 0], 
                    [122.56172, 10.69581, 0], 
                    [122.56172, 10.69559, 0], 
                    [122.56172, 10.69487, 0], 
                    [122.56172, 10.69428, 0], 
                    [122.56172, 10.69418, 0], 
                    [122.56206, 10.69428, 0], 
                    [122.56328, 10.69466, 0], 
                    [122.56427, 10.69496, 0], 
                    [122.56481, 10.69513, 0], 
                    [122.56479, 10.69462, 0], 
                    [122.56479, 10.69442, 0], 
                    [122.56477, 10.69378, 0], 
                    [122.56476, 10.69331, 0], 
                    [122.56523, 10.69335, 0], 
                    [122.56525, 10.69335, 0], 
                    [122.56531, 10.69336, 0], 
                    [122.56536, 10.69336, 0], 
                    [122.56541, 10.69337, 0], 
                    [122.56546, 10.69337, 0], 
                    [122.56555, 10.69338, 0], 
                    [122.56558, 10.69338, 0], 
                    [122.56574, 10.69340, 0], 
                    [122.56592, 10.69341, 0], 
                    [122.56600, 10.69342, 0], 
                    [122.56610, 10.69343, 0], 
                    [122.56634, 10.69345, 0], 
                    [122.56629, 10.69178, 0], 
                    [122.56641, 10.69179, 0], 
                    [122.56678, 10.69182, 0], 
                    [122.56701, 10.69184, 0], 
                    [122.56726, 10.69186, 0], 
                    [122.56744, 10.69187, 0], 
                    [122.56784, 10.69189, 0], 
                    [122.56795, 10.69191, 0], 
                    [122.56795, 10.69193, 0], 
                    [122.56794, 10.69226, 0], 
                    [122.56794, 10.69251, 0], 
                    [122.56793, 10.69294, 0], 
                    [122.56791, 10.69356, 0], 
                    [122.56789, 10.69402, 0], 
                    [122.56789, 10.69441, 0], 
                    [122.56789, 10.69483, 0], 
                    [122.56787, 10.69608, 0], 
                    [122.56787, 10.69617, 0], 
                    [122.56786, 10.69656, 0], 
                    [122.56781, 10.69785, 0], 
                    [122.56780, 10.69809, 0], 
                    [122.56779, 10.69910, 0], 
                    [122.56777, 10.69939, 0], 
                    [122.56774, 10.70025, 0], 
                    [122.56771, 10.70082, 0], 
                    [122.56770, 10.70125, 0], 
                    [122.56770, 10.70130, 0], 
                    [122.56771, 10.70146, 0], 
                    [122.56790, 10.70150, 0], 
                    [122.56813, 10.70155, 0], 
                    [122.56823, 10.70158, 0], 
                    [122.56833, 10.70163, 0], 
                    [122.56840, 10.70171, 0], 
                    [122.56846, 10.70168, 0], 
                    [122.56885, 10.70157, 0], 
                    [122.56895, 10.70155, 0], 
                    [122.56898, 10.70154, 0], 
                    [122.56902, 10.70153, 0], 
                    [122.56902, 10.70152, 0], 
                    [122.56903, 10.70152, 0], 
                    [122.56903, 10.70151, 0], 
                    [122.56903, 10.70150, 0], 
                    [122.56904, 10.70150, 0], 
                    [122.56904, 10.70149, 0], 
                    [122.56905, 10.70148, 0], 
                    [122.56906, 10.70148, 0], 
                    [122.56906, 10.70147, 0], 
                    [122.56907, 10.70147, 0], 
                    [122.56908, 10.70146, 0], 
                    [122.56909, 10.70146, 0], 
                    [122.56910, 10.70146, 0], 
                    [122.56911, 10.70146, 0], 
                    [122.56912, 10.70146, 0], 
                    [122.56913, 10.70146, 0], 
                    [122.56914, 10.70146, 0], 
                    [122.56915, 10.70146, 0], 
                    [122.56916, 10.70146, 0], 
                    [122.56916, 10.70147, 0], 
                    [122.56917, 10.70147, 0], 
                    [122.56918, 10.70148, 0], 
                    [122.56919, 10.70148, 0], 
                    [122.56919, 10.70149, 0], 
                    [122.56920, 10.70149, 0], 
                    [122.56920, 10.70150, 0], 
                    [122.56921, 10.70151, 0], 
                    [122.56921, 10.70152, 0], 
                    [122.56979, 10.70169, 0], 
                    [122.56977, 10.70176, 0], 
                    [122.56964, 10.70222, 0], 
                    [122.56953, 10.70250, 0], 
                    [122.56943, 10.70277, 0], 
                    [122.56933, 10.70304, 0], 
                    [122.56906, 10.70384, 0], 
                    [122.56904, 10.70395, 0], 
                    [122.56896, 10.70422, 0], 
                    [122.56874, 10.70472, 0], 
                    [122.56871, 10.70480, 0], 
                    [122.56871, 10.70483, 0], 
                    [122.56869, 10.70494, 0], 
                    [122.56869, 10.70501, 0], 
                    [122.56871, 10.70516, 0], 
                    [122.56889, 10.70570, 0], 
                    [122.56910, 10.70648, 0], 
                    [122.56912, 10.70666, 0], 
                    [122.56918, 10.70726, 0], 
                    [122.56917, 10.70731, 0], 
                    [122.56861, 10.70776, 0], 
                    [122.56855, 10.70781, 0], 
                    [122.56829, 10.70803, 0], 
                    [122.56786, 10.70838, 0], 
                    [122.56772, 10.70851, 0], 
                    [122.56730, 10.70885, 0], 
                    [122.56710, 10.70901, 0], 
                    [122.56687, 10.70916, 0], 
                    [122.56677, 10.70922, 0], 
                    [122.56671, 10.70924, 0], 
                    [122.56666, 10.70925, 0], 
                    [122.56662, 10.70931, 0], 
                    [122.56620, 10.71000, 0], 
                    [122.56608, 10.71020, 0], 
                    [122.56599, 10.71033, 0], 
                    [122.56594, 10.71042, 0], 
                    [122.56572, 10.71077, 0], 
                    [122.56569, 10.71082, 0], 
                    [122.56549, 10.71114, 0], 
                    [122.56531, 10.71143, 0], 
                    [122.56482, 10.71223, 0], 
                    [122.56472, 10.71244, 0], 
                    [122.56462, 10.71261, 0], 
                    [122.56458, 10.71266, 0], 
                    [122.56454, 10.71273, 0], 
                    [122.56445, 10.71286, 0], 
                    [122.56441, 10.71296, 0], 
                    [122.56414, 10.71346, 0], 
                    [122.56412, 10.71348, 0], 
                    [122.56401, 10.71364, 0], 
                    [122.56394, 10.71374, 0], 
                    [122.56360, 10.71425, 0], 
                    [122.56327, 10.71475, 0], 
                    [122.56276, 10.71560, 0], 
                    [122.56266, 10.71567, 0], 
                    [122.56250, 10.71593, 0], 
                    [122.56240, 10.71609, 0], 
                    [122.56216, 10.71644, 0], 
                    [122.56193, 10.71681, 0], 
                    [122.56185, 10.71695, 0], 
                    [122.56323, 10.71852, 0], 
                    [122.56353, 10.71887, 0], 
                    [122.56294, 10.71947, 0], 
                    [122.56258, 10.71982, 0], 
                    [122.56225, 10.72015, 0], 
                    [122.56185, 10.72052, 0], 
                    [122.56165, 10.72071, 0], 
                    [122.56120, 10.72113, 0], 
                    [122.56113, 10.72119, 0], 
                    [122.56104, 10.72127, 0], 
                    [122.56097, 10.72132, 0], 
                    [122.56071, 10.72156, 0], 
                    [122.56025, 10.72196, 0], 
                    [122.56024, 10.72197, 0], 
                    [122.55969, 10.72250, 0], 
                    [122.55927, 10.72293, 0], 
                    [122.55904, 10.72318, 0], 
                    [122.55866, 10.72364, 0], 
                    [122.55835, 10.72400, 0], 
                    [122.55817, 10.72424, 0], 
                    [122.55806, 10.72435, 0], 
                    [122.55776, 10.72474, 0], 
                    [122.55775, 10.72475, 0], 
                    [122.55732, 10.72527, 0], 
                    [122.55712, 10.72554, 0], 
                    [122.55740, 10.72565, 0], 
                    [122.55757, 10.72576, 0], 
                    [122.55764, 10.72580, 0], 
                    [122.55769, 10.72583, 0], 
                    [122.55771, 10.72586, 0], 
                    [122.55773, 10.72589, 0], 
                    [122.55775, 10.72596, 0], 
                    [122.55777, 10.72602, 0], 
                    [122.55782, 10.72620, 0], 
                    [122.55784, 10.72628, 0], 
                    [122.55800, 10.72690, 0], 
                    [122.55810, 10.72714, 0], 
                    [122.55812, 10.72723, 0], 
                    [122.55847, 10.72826, 0], 
                    [122.55863, 10.72867, 0], 
                    [122.55867, 10.72876, 0], 
                    [122.55874, 10.72893, 0], 
                    [122.55877, 10.72902, 0], 
                    [122.55889, 10.72945, 0], 
                    [122.55897, 10.72968, 0], 
                    [122.55906, 10.73006, 0], 
                    [122.55911, 10.73018, 0], 
                    [122.55937, 10.73075, 0], 
                    [122.55947, 10.73106, 0], 
                    [122.55951, 10.73117, 0], 
                    [122.55953, 10.73123, 0], 
                    [122.55958, 10.73140, 0], 
                    [122.55961, 10.73150, 0], 
                    [122.55967, 10.73167, 0], 
                    [122.55986, 10.73226, 0], 
                    [122.55996, 10.73253, 0], 
                    [122.55997, 10.73256, 0], 
                    [122.56011, 10.73299, 0], 
                    [122.56047, 10.73412, 0], 
                    [122.56051, 10.73424, 0], 
                    [122.56067, 10.73473, 0], 
                    [122.56094, 10.73549, 0], 
                    [122.56106, 10.73578, 0], 
                    [122.56120, 10.73608, 0], 
                    [122.56140, 10.73647, 0], 
                    [122.56169, 10.73707, 0], 
                    [122.56187, 10.73744, 0], 
                    [122.56191, 10.73753, 0], 
                    [122.56216, 10.73801, 0], 
                    [122.56234, 10.73835, 0], 
                    [122.56243, 10.73851, 0], 
                    [122.56257, 10.73875, 0], 
                    [122.56280, 10.73917, 0], 
                    [122.56316, 10.73978, 0], 
                    [122.56319, 10.73986, 0], 
                    [122.56342, 10.74023, 0], 
                    [122.56368, 10.74066, 0], 
                    [122.56392, 10.74105, 0], 
                    [122.56396, 10.74111, 0], 
                    [122.56431, 10.74162, 0], 
                    [122.56443, 10.74180, 0], 
                    [122.56454, 10.74196, 0], 
                    [122.56480, 10.74235, 0], 
                    [122.56540, 10.74321, 0], 
                    [122.56588, 10.74393, 0], 
                    [122.56629, 10.74456, 0], 
                    [122.56669, 10.74515, 0], 
                    [122.56672, 10.74519, 0], 
                    [122.56675, 10.74523, 0], 
                    [122.56784, 10.74693, 0], 
                    [122.56804, 10.74722, 0], 
                    [122.56836, 10.74773, 0], 
                    [122.56887, 10.74853, 0], 
                    [122.56917, 10.74905, 0], 
                    [122.56935, 10.74919, 0], 
                    [122.56974, 10.74983, 0], 
                    [122.56982, 10.74996, 0], 
                    [122.57008, 10.75038, 0], 
                    [122.57015, 10.75046, 0], 
                    [122.57062, 10.75117, 0], 
                    [122.57065, 10.75121, 0], 
                    [122.57079, 10.75143, 0], 
                    [122.57122, 10.75212, 0], 
                    [122.57156, 10.75262, 0], 
                    [122.57157, 10.75263, 0], 
                    [122.57158, 10.75265, 0], 
                    [122.57158, 10.75266, 0], 
                    [122.57159, 10.75267, 0], 
                    [122.57159, 10.75268, 0], 
                    [122.57159, 10.75269, 0], 
                    [122.57159, 10.75271, 0], 
                    [122.57192, 10.75318, 0], 
                    [122.57203, 10.75335, 0], 
                    [122.57218, 10.75353, 0], 
                    [122.57241, 10.75389, 0], 
                    [122.57266, 10.75428, 0], 
                    [122.57279, 10.75445, 0], 
                    [122.57299, 10.75475, 0], 
                    [122.57325, 10.75512, 0], 
                    [122.57340, 10.75534, 0], 
                    [122.57362, 10.75564, 0], 
                    [122.57388, 10.75602, 0], 
                    [122.57414, 10.75639, 0], 
                    [122.57455, 10.75697, 0], 
                    [122.57468, 10.75717, 0], 
                    [122.57484, 10.75741, 0], 
                    [122.57542, 10.75831, 0], 
                    [122.57587, 10.75901, 0], 
                    [122.57606, 10.75931, 0], 
                    [122.57618, 10.75950, 0], 
                    [122.57622, 10.75956, 0], 
                    [122.57665, 10.76020, 0], 
                    [122.57698, 10.76070, 0], 
                    [122.57705, 10.76080, 0], 
                    [122.57709, 10.76086, 0], 
                    [122.57733, 10.76121, 0], 
                    [122.57773, 10.76182, 0], 
                    [122.57798, 10.76218, 0], 
                    [122.57790, 10.76224, 0]  
                ]
            }, 
            "properties": {
                "name": "Route 10 Path", 
                "styleUrl": "#route-style", 
                "stroke-opacity": 1, 
                "stroke": "#ff8000", 
                "stroke-width": 6
            }
        }, 
        {
            "type": "Feature", 
            "geometry": { "type": "Point", "coordinates": [122.5777899, 10.7621521, 0] }, 
            "properties": {
                "name": "Tagbak Terminal", 
                "description": "Start/End", 
                "styleUrl": "#stop-style", 
                "label-scale": 0.8, 
                "icon-scale": 1.1, 
                "icon-offset": [32, 1], 
                "icon-offset-units": ["pixels", "pixels"], 
                "icon": "http://maps.google.com/mapfiles/kml/paddle/wht-bus.png"
            }
        }, 
        {
            "type": "Feature", 
            "geometry": { "type": "Point", "coordinates": [122.5565816, 10.7250263, 0] }, 
            "properties": {
                "name": "Jaro Plaza (Arguelles)", 
                "description": "Major Jaro Hub", 
                "styleUrl": "#stop-style", 
                "label-scale": 0.8, 
                "icon-scale": 1.1, 
                "icon-offset": [32, 1], 
                "icon-offset-units": ["pixels", "pixels"], 
                "icon": "http://maps.google.com/mapfiles/kml/paddle/wht-bus.png"
            }
        }, 
        {
            "type": "Feature", 
            "geometry": { "type": "Point", "coordinates": [122.5617182, 10.6948653, 0] }, 
            "properties": {
                "name": "EON Centennial Hotel / Jalandoni St", 
                "description": "Entry to City Proper", 
                "styleUrl": "#stop-style", 
                "label-scale": 0.8, 
                "icon-scale": 1.1, 
                "icon-offset": [32, 1], 
                "icon-offset-units": ["pixels", "pixels"], 
                "icon": "http://maps.google.com/mapfiles/kml/paddle/wht-bus.png"
            }
        }, 
        {
            "type": "Feature", 
            "geometry": { "type": "Point", "coordinates": [122.5679415, 10.69226, 0] }, 
            "properties": {
                "name": "Robinsons Place / Valeria St.", 
                "description": "Downtown Shopping District", 
                "styleUrl": "#stop-style", 
                "label-scale": 0.8, 
                "icon-scale": 1.1, 
                "icon-offset": [32, 1], 
                "icon-offset-units": ["pixels", "pixels"], 
                "icon": "http://maps.google.com/mapfiles/kml/paddle/wht-bus.png"
            }
        }, 
        {
            "type": "Feature", 
            "geometry": { "type": "Point", "coordinates": [122.5685456, 10.7078127, 0] }, 
            "properties": {
                "name": "La Paz District / Rizal St.", 
                "description": "Crossing back to Jaro", 
                "styleUrl": "#stop-style", 
                "label-scale": 0.8, 
                "icon-scale": 1.1, 
                "icon-offset": [32, 1], 
                "icon-offset-units": ["pixels", "pixels"], 
                "icon": "http://maps.google.com/mapfiles/kml/paddle/wht-bus.png"
            }
        }, 
        {
            "type": "Feature", 
            "geometry": { "type": "Point", "coordinates": [122.577901, 10.7622379, 0] }, 
            "properties": {
                "name": "Buntatala / Ceres Area", 
                "description": "Approaching Tagbak", 
                "styleUrl": "#stop-style", 
                "label-scale": 0.8, 
                "icon-scale": 1.1, 
                "icon-offset": [32, 1], 
                "icon-offset-units": ["pixels", "pixels"], 
                "icon": "http://maps.google.com/mapfiles/kml/paddle/wht-bus.png"
            }
        }
    ]
}
