{
    "type": "FeatureCollection", 
    "features": [
        {
            "type": "Feature", 
            "geometry": {
                "type": "LineString", 
                "coordinates": [
                    [122.56958, 10.69201, 0], 
                    [122.56964, 10.69201, 0], 
                    [122.56978, 10.69204, 0], 
                    [122.57001, 10.69205, 0], 
                    [122.57003, 10.69205, 0], 
                    [122.57066, 10.69206, 0], 
                    [122.57066, 10.69207, 0], 
                    [122.57100, 10.69257, 0], 
                    [122.57109, 10.69266, 0], 
                    [122.57172, 10.69352, 0], 
                    [122.57203, 10.69331, 0], 
                    [122.57257, 10.69292, 0], 
                    [122.57273, 10.69287, 0], 
                    [122.57293, 10.69273, 0], 
                    [122.57336, 10.69232, 0], 
                    [122.57382, 10.69187, 0], 
                    [122.57388, 10.69180, 0], 
                    [122.57372, 10.69166, 0], 
                    [122.57357, 10.69168, 0], 
                    [122.57251, 10.69183, 0], 
                    [122.57166, 10.69198, 0], 
                    [122.57165, 10.69198, 0], 
                    [122.57066, 10.69206, 0], 
                    [122.57003, 10.69205, 0], 
                    [122.57001, 10.69205, 0], 
                    [122.56978, 10.69204, 0], 
                    [122.56964, 10.69201, 0], 
                    [122.56958, 10.69201, 0], 
                    [122.56950, 10.69200, 0], 
                    [122.56925, 10.69199, 0], 
                    [122.56921, 10.69199, 0], 
                    [122.56918, 10.69200, 0], 
                    [122.56914, 10.69203, 0], 
                    [122.56915, 10.69203, 0], 
                    [122.56915, 10.69204, 0], 
                    [122.56915, 10.69205, 0], 
                    [122.56915, 10.69206, 0], 
                    [122.56915, 10.69207, 0], 
                    [122.56915, 10.69208, 0], 
                    [122.56915, 10.69209, 0], 
                    [122.56915, 10.69210, 0], 
                    [122.56914, 10.69210, 0], 
                    [122.56914, 10.69211, 0], 
                    [122.56913, 10.69212, 0], 
                    [122.56912, 10.69212, 0], 
                    [122.56912, 10.69213, 0], 
                    [122.56911, 10.69213, 0], 
                    [122.56910, 10.69214, 0], 
                    [122.56909, 10.69214, 0], 
                    [122.56908, 10.69214, 0], 
                    [122.56907, 10.69214, 0], 
                    [122.56906, 10.69214, 0], 
                    [122.56905, 10.69214, 0], 
                    [122.56905, 10.69213, 0], 
                    [122.56904, 10.69213, 0], 
                    [122.56903, 10.69213, 0], 
                    [122.56903, 10.69212, 0], 
                    [122.56902, 10.69212, 0], 
                    [122.56902, 10.69211, 0], 
                    [122.56901, 10.69211, 0], 
                    [122.56901, 10.69210, 0], 
                    [122.56901, 10.69209, 0], 
                    [122.56900, 10.69209, 0], 
                    [122.56900, 10.69208, 0], 
                    [122.56900, 10.69207, 0], 
                    [122.56900, 10.69206, 0], 
                    [122.56900, 10.69205, 0], 
                    [122.56900, 10.69204, 0], 
                    [122.56901, 10.69204, 0], 
                    [122.56901, 10.69203, 0], 
                    [122.56901, 10.69202, 0], 
                    [122.56902, 10.69202, 0], 
                    [122.56902, 10.69201, 0], 
                    [122.56795, 10.69191, 0], 
                    [122.56795, 10.69193, 0], 
                    [122.56794, 10.69251, 0], 
                    [122.56793, 10.69294, 0], 
                    [122.56791, 10.69356, 0], 
                    [122.56789, 10.69402, 0], 
                    [122.56789, 10.69441, 0], 
                    [122.56789, 10.69483, 0], 
                    [122.56787, 10.69608, 0], 
                    [122.56787, 10.69617, 0], 
                    [122.56786, 10.69656, 0], 
                    [122.56781, 10.69785, 0], 
                    [122.56780, 10.69809, 0], 
                    [122.56779, 10.69910, 0], 
                    [122.56777, 10.69939, 0], 
                    [122.56774, 10.70025, 0], 
                    [122.56771, 10.70082, 0], 
                    [122.56770, 10.70125, 0], 
                    [122.56770, 10.70130, 0], 
                    [122.56771, 10.70146, 0], 
                    [122.56790, 10.70150, 0], 
                    [122.56813, 10.70155, 0], 
                    [122.56823, 10.70158, 0], 
                    [122.56833, 10.70163, 0], 
                    [122.56840, 10.70171, 0], 
                    [122.56846, 10.70168, 0], 
                    [122.56885, 10.70157, 0], 
                    [122.56895, 10.70155, 0], 
                    [122.56898, 10.70154, 0], 
                    [122.56902, 10.70153, 0], 
                    [122.56902, 10.70152, 0], 
                    [122.56903, 10.70152, 0], 
                    [122.56903, 10.70151, 0], 
                    [122.56903, 10.70150, 0], 
                    [122.56904, 10.70150, 0], 
                    [122.56904, 10.70149, 0], 
                    [122.56905, 10.70148, 0], 
                    [122.56906, 10.70148, 0], 
                    [122.56906, 10.70147, 0], 
                    [122.56907, 10.70147, 0], 
                    [122.56908, 10.70146, 0], 
                    [122.56909, 10.70146, 0], 
                    [122.56910, 10.70146, 0], 
                    [122.56911, 10.70146, 0], 
                    [122.56912, 10.70146, 0], 
                    [122.56913, 10.70146, 0], 
                    [122.56914, 10.70146, 0], 
                    [122.56915, 10.70146, 0], 
                    [122.56916, 10.70146, 0], 
                    [122.56916, 10.70147, 0], 
                    [122.56917, 10.70147, 0], 
                    [122.56918, 10.70148, 0], 
                    [122.56919, 10.70148, 0], 
                    [122.56919, 10.70149, 0], 
                    [122.56920, 10.70149, 0], 
                    [122.56920, 10.70150, 0], 
                    [122.56921, 10.70151, 0], 
                    [122.56921, 10.70152, 0], 
                    [122.56921, 10.70153, 0], 
                    [122.56922, 10.70154, 0], 
                    [122.56922, 10.70155, 0], 
                    [122.56922, 10.70156, 0], 
                    [122.56922, 10.70157, 0], 
                    [122.56921, 10.70157, 0], 
                    [122.56921, 10.70158, 0], 
                    [122.56921, 10.70159, 0], 
                    [122.56921, 10.70160, 0], 
                    [122.56920, 10.70160, 0], 
                    [122.56920, 10.70161, 0], 
                    [122.56919, 10.70162, 0], 
                    [122.56918, 10.70163, 0], 
                    [122.56917, 10.70163, 0], 
                    [122.56917, 10.70164, 0], 
                    [122.56916, 10.70164, 0], 
                    [122.56915, 10.70164, 0], 
                    [122.56915, 10.70165, 0], 
                    [122.56914, 10.70165, 0], 
                    [122.56913, 10.70165, 0], 
                    [122.56882, 10.70177, 0], 
                    [122.56871, 10.70180, 0], 
                    [122.56855, 10.70185, 0], 
                    [122.56840, 10.70195, 0], 
                    [122.56834, 10.70203, 0], 
                    [122.56826, 10.70215, 0], 
                    [122.56814, 10.70224, 0], 
                    [122.56810, 10.70261, 0], 
                    [122.56810, 10.70265, 0], 
                    [122.56807, 10.70298, 0], 
                    [122.56806, 10.70303, 0], 
                    [122.56804, 10.70323, 0], 
                    [122.56799, 10.70356, 0], 
                    [122.56797, 10.70383, 0], 
                    [122.56796, 10.70408, 0], 
                    [122.56793, 10.70452, 0], 
                    [122.56793, 10.70465, 0], 
                    [122.56793, 10.70469, 0], 
                    [122.56791, 10.70498, 0], 
                    [122.56790, 10.70507, 0], 
                    [122.56786, 10.70521, 0], 
                    [122.56769, 10.70575, 0], 
                    [122.56752, 10.70627, 0], 
                    [122.56749, 10.70637, 0], 
                    [122.56741, 10.70658, 0], 
                    [122.56740, 10.70663, 0], 
                    [122.56734, 10.70680, 0], 
                    [122.56731, 10.70688, 0], 
                    [122.56728, 10.70698, 0], 
                    [122.56726, 10.70704, 0], 
                    [122.56723, 10.70721, 0], 
                    [122.56720, 10.70733, 0], 
                    [122.56716, 10.70749, 0], 
                    [122.56713, 10.70767, 0], 
                    [122.56710, 10.70778, 0], 
                    [122.56702, 10.70807, 0], 
                    [122.56673, 10.70898, 0], 
                    [122.56671, 10.70907, 0], 
                    [122.56669, 10.70913, 0], 
                    [122.56667, 10.70919, 0], 
                    [122.56666, 10.70925, 0], 
                    [122.56662, 10.70931, 0], 
                    [122.56620, 10.71000, 0], 
                    [122.56608, 10.71020, 0], 
                    [122.56599, 10.71033, 0], 
                    [122.56594, 10.71042, 0], 
                    [122.56572, 10.71077, 0], 
                    [122.56569, 10.71082, 0], 
                    [122.56549, 10.71114, 0], 
                    [122.56531, 10.71143, 0], 
                    [122.56482, 10.71223, 0], 
                    [122.56472, 10.71244, 0], 
                    [122.56462, 10.71261, 0], 
                    [122.56458, 10.71266, 0], 
                    [122.56454, 10.71273, 0], 
                    [122.56445, 10.71286, 0], 
                    [122.56441, 10.71296, 0], 
                    [122.56414, 10.71346, 0], 
                    [122.56412, 10.71348, 0], 
                    [122.56401, 10.71364, 0], 
                    [122.56394, 10.71374, 0], 
                    [122.56360, 10.71425, 0], 
                    [122.56327, 10.71475, 0], 
                    [122.56276, 10.71560, 0], 
                    [122.56266, 10.71567, 0], 
                    [122.56250, 10.71593, 0], 
                    [122.56240, 10.71609, 0], 
                    [122.56216, 10.71644, 0], 
                    [122.56193, 10.71681, 0], 
                    [122.56185, 10.71695, 0], 
                    [122.56323, 10.71852, 0], 
                    [122.56353, 10.71887, 0], 
                    [122.56294, 10.71947, 0], 
                    [122.56258, 10.71982, 0], 
                    [122.56225, 10.72015, 0], 
                    [122.56185, 10.72052, 0], 
                    [122.56165, 10.72071, 0], 
                    [122.56120, 10.72113, 0], 
                    [122.56113, 10.72119, 0], 
                    [122.56104, 10.72127, 0], 
                    [122.56097, 10.72132, 0], 
                    [122.56071, 10.72156, 0], 
                    [122.56025, 10.72196, 0], 
                    [122.56024, 10.72197, 0], 
                    [122.55969, 10.72250, 0], 
                    [122.55927, 10.72293, 0], 
                    [122.55904, 10.72318, 0], 
                    [122.55866, 10.72364, 0], 
                    [122.55835, 10.72400, 0], 
                    [122.55817, 10.72424, 0], 
                    [122.55806, 10.72435, 0], 
                    [122.55776, 10.72474, 0], 
                    [122.55775, 10.72475, 0], 
                    [122.55736, 10.72522, 0], 
                    [122.55732, 10.72527, 0], 
                    [122.55712, 10.72554, 0], 
                    [122.55740, 10.72565, 0], 
                    [122.55757, 10.72576, 0], 
                    [122.55764, 10.72580, 0], 
                    [122.55769, 10.72583, 0], 
                    [122.55771, 10.72586, 0], 
                    [122.55773, 10.72589, 0], 
                    [122.55775, 10.72596, 0], 
                    [122.55777, 10.72602, 0], 
                    [122.55782, 10.72620, 0], 
                    [122.55784, 10.72628, 0], 
                    [122.55800, 10.72690, 0], 
                    [122.55810, 10.72714, 0], 
                    [122.55812, 10.72723, 0], 
                    [122.55847, 10.72826, 0], 
                    [122.55863, 10.72867, 0], 
                    [122.55867, 10.72876, 0], 
                    [122.55874, 10.72893, 0], 
                    [122.55877, 10.72902, 0], 
                    [122.55889, 10.72945, 0], 
                    [122.55897, 10.72968, 0], 
                    [122.55906, 10.73006, 0], 
                    [122.55911, 10.73018, 0], 
                    [122.55937, 10.73075, 0], 
                    [122.55947, 10.73106, 0], 
                    [122.55951, 10.73117, 0], 
                    [122.55953, 10.73123, 0], 
                    [122.55958, 10.73140, 0], 
                    [122.55961, 10.73150, 0], 
                    [122.55967, 10.73167, 0], 
                    [122.55986, 10.73226, 0], 
                    [122.55996, 10.73253, 0], 
                    [122.55997, 10.73256, 0], 
                    [122.56011, 10.73299, 0], 
                    [122.56047, 10.73412, 0], 
                    [122.56051, 10.73424, 0], 
                    [122.56067, 10.73473, 0], 
                    [122.56094, 10.73549, 0], 
                    [122.56106, 10.73578, 0], 
                    [122.56120, 10.73608, 0], 
                    [122.56140, 10.73647, 0], 
                    [122.56169, 10.73707, 0], 
                    [122.56187, 10.73744, 0], 
                    [122.56191, 10.73753, 0], 
                    [122.56216, 10.73801, 0], 
                    [122.56234, 10.73835, 0], 
                    [122.56243, 10.73851, 0], 
                    [122.56257, 10.73875, 0], 
                    [122.56280, 10.73917, 0], 
                    [122.56316, 10.73978, 0], 
                    [122.56319, 10.73986, 0], 
                    [122.56342, 10.74023, 0], 
                    [122.56368, 10.74066, 0], 
                    [122.56392, 10.74105, 0], 
                    [122.56396, 10.74111, 0], 
                    [122.56431, 10.74162, 0], 
                    [122.56443, 10.74180, 0], 
                    [122.56454, 10.74196, 0], 
                    [122.56480, 10.74235, 0], 
                    [122.56540, 10.74321, 0], 
                    [122.56588, 10.74393, 0], 
                    [122.56629, 10.74456, 0], 
                    [122.56669, 10.74515, 0], 
                    [122.56672, 10.74519, 0], 
                    [122.56675, 10.74523, 0], 
                    [122.56784, 10.74693, 0], 
                    [122.56804, 10.74722, 0], 
                    [122.56836, 10.74773, 0], 
                    [122.56887, 10.74853, 0], 
                    [122.56917, 10.74905, 0], 
                    [122.56935, 10.74919, 0], 
                    [122.56974, 10.74983, 0], 
                    [122.56982, 10.74996, 0], 
                    [122.57008, 10.75038, 0], 
                    [122.57015, 10.75046, 0], 
                    [122.57062, 10.75117, 0], 
                    [122.57065, 10.75121, 0], 
                    [122.57079, 10.75143, 0], 
                    [122.57122, 10.75212, 0], 
                    [122.57156, 10.75262, 0], 
                    [122.57157, 10.75263, 0], 
                    [122.57158, 10.75265, 0], 
                    [122.57158, 10.75266, 0], 
                    [122.57159, 10.75267, 0], 
                    [122.57159, 10.75268, 0], 
                    [122.57159, 10.75269, 0], 
                    [122.57159, 10.75271, 0], 
                    [122.57192, 10.75318, 0], 
                    [122.57203, 10.75335, 0], 
                    [122.57218, 10.75353, 0], 
                    [122.57241, 10.75389, 0], 
                    [122.57266, 10.75428, 0], 
                    [122.57279, 10.75445, 0], 
                    [122.57299, 10.75475, 0], 
                    [122.57325, 10.75512, 0], 
                    [122.57340, 10.75534, 0], 
                    [122.57362, 10.75564, 0], 
                    [122.57388, 10.75602, 0], 
                    [122.57414, 10.75639, 0], 
                    [122.57455, 10.75697, 0], 
                    [122.57468, 10.75717, 0], 
                    [122.57484, 10.75741, 0], 
                    [122.57542, 10.75831, 0], 
                    [122.57587, 10.75901, 0], 
                    [122.57606, 10.75931, 0], 
                    [122.57618, 10.75950, 0], 
                    [122.57622, 10.75956, 0], 
                    [122.57665, 10.76020, 0], 
                    [122.57698, 10.76070, 0], 
                    [122.57705, 10.76080, 0], 
                    [122.57709, 10.76086, 0], 
                    [122.57733, 10.76121, 0], 
                    [122.57722, 10.76128, 0], 
                    [122.57779, 10.76215, 0]  
                ]
            }, 
            "properties": {
                "name": "UI_TO_TAGBAK", 
                "styleUrl": "#line-1267FF-5000-nodesc", 
                "stroke-opacity": 1, 
                "stroke": "#1267ff", 
                "stroke-width": 5
            }
        }, 
        {
            "type": "Feature", 
            "geometry": { "type": "Point", "coordinates": [122.5695841, 10.6920065, 0] }, 
            "properties": {
                "name": "University of Iloilo - Phinma Education, Rizal Street, Iloilo City Proper, Iloilo City, Iloilo", 
                "styleUrl": "#icon-1899-DB4436-nodesc", 
                "label-scale": 0, 
                "icon-opacity": 1, 
                "icon-color": "#db4436", 
                "icon-scale": 1, 
                "icon-offset": [32, 64], 
                "icon-offset-units": ["pixels", "insetPixels"], 
                "icon": "https://www.gstatic.com/mapspro/images/stock/503-wht-blank_maps.png"
            }
        }, 
        {
            "type": "Feature", 
            "geometry": { "type": "Point", "coordinates": [122.5706595, 10.6920635, 0] }, 
            "properties": {
                "name": "Mapa Street, Iloilo City Proper, Iloilo City, Iloilo", 
                "styleUrl": "#icon-1899-DB4436-nodesc", 
                "label-scale": 0, 
                "icon-opacity": 1, 
                "icon-color": "#db4436", 
                "icon-scale": 1, 
                "icon-offset": [32, 64], 
                "icon-offset-units": ["pixels", "insetPixels"], 
                "icon": "https://www.gstatic.com/mapspro/images/stock/503-wht-blank_maps.png"
            }
        }, 
        {
            "type": "Feature", 
            "geometry": { "type": "Point", "coordinates": [122.5738152, 10.6918689, 0] }, 
            "properties": {
                "name": "Villanueva Building, 5000 JM Basa St, Iloilo City Proper, Iloilo City, 5000 Iloilo, Philippines", 
                "styleUrl": "#icon-1899-DB4436-nodesc", 
                "label-scale": 0, 
                "icon-opacity": 1, 
                "icon-color": "#db4436", 
                "icon-scale": 1, 
                "icon-offset": [32, 64], 
                "icon-offset-units": ["pixels", "insetPixels"], 
                "icon": "https://www.gstatic.com/mapspro/images/stock/503-wht-blank_maps.png"
            }
        }, 
        {
            "type": "Feature", 
            "geometry": { "type": "Point", "coordinates": [122.5695841, 10.6920065, 0] }, 
            "properties": {
                "name": "University of Iloilo - Phinma Education, Rizal Street, Iloilo City Proper, Iloilo City, Iloilo", 
                "styleUrl": "#icon-1899-DB4436-nodesc", 
                "label-scale": 0, 
                "icon-opacity": 1, 
                "icon-color": "#db4436", 
                "icon-scale": 1, 
                "icon-offset": [32, 64], 
                "icon-offset-units": ["pixels", "insetPixels"], 
                "icon": "https://www.gstatic.com/mapspro/images/stock/503-wht-blank_maps.png"
            }
        }, 
        {
            "type": "Feature", 
            "geometry": { "type": "Point", "coordinates": [122.5684613, 10.701675, 0] }, 
            "properties": {
                "name": "17-A Iznart Street, Iloilo City Proper, Iloilo City, Iloilo, Philippines", 
                "styleUrl": "#icon-1899-DB4436-nodesc", 
                "label-scale": 0, 
                "icon-opacity": 1, 
                "icon-color": "#db4436", 
                "icon-scale": 1, 
                "icon-offset": [32, 64], 
                "icon-offset-units": ["pixels", "insetPixels"], 
                "icon": "https://www.gstatic.com/mapspro/images/stock/503-wht-blank_maps.png"
            }
        }, 
        {
            "type": "Feature", 
            "geometry": { "type": "Point", "coordinates": [122.5573558, 10.7252244, 0] }, 
            "properties": {
                "name": "LANDBANK - Jaro, Plaza Rizal Street, Jaro, Iloilo City, Iloilo", 
                "styleUrl": "#icon-1899-DB4436-nodesc", 
                "label-scale": 0, 
                "icon-opacity": 1, 
                "icon-color": "#db4436", 
                "icon-scale": 1, 
                "icon-offset": [32, 64], 
                "icon-offset-units": ["pixels", "insetPixels"], 
                "icon": "https://www.gstatic.com/mapspro/images/stock/503-wht-blank_maps.png"
            }
        }, 
        {
            "type": "Feature", 
            "geometry": { "type": "Point", "coordinates": [122.5777899, 10.7621521, 0] }, 
            "properties": {
                "name": "Tagbak Terminal Jeepneys, Jaro, Iloilo City, Iloilo", 
                "styleUrl": "#icon-1899-DB4436-nodesc", 
                "label-scale": 0, 
                "icon-opacity": 1, 
                "icon-color": "#db4436", 
                "icon-scale": 1, 
                "icon-offset": [32, 64], 
                "icon-offset-units": ["pixels", "insetPixels"], 
                "icon": "https://www.gstatic.com/mapspro/images/stock/503-wht-blank_maps.png"
            }
        }
    ]
}
