{
    "type": "FeatureCollection", 
    "features": [
        {
            "type": "Feature", 
            "geometry": {
                "type": "LineString", 
                "coordinates": [
                    [122.56037, 10.70045, 0], 
                    [122.56016, 10.70044, 0], 
                    [122.55991, 10.70042, 0], 
                    [122.55986, 10.70041, 0], 
                    [122.55982, 10.70040, 0], 
                    [122.55972, 10.70038, 0], 
                    [122.55793, 10.70023, 0], 
                    [122.55776, 10.70022, 0], 
                    [122.55759, 10.70020, 0], 
                    [122.55740, 10.70019, 0], 
                    [122.55729, 10.70018, 0], 
                    [122.55711, 10.70017, 0], 
                    [122.55584, 10.70005, 0], 
                    [122.55576, 10.70004, 0], 
                    [122.55573, 10.70004, 0], 
                    [122.55569, 10.70004, 0], 
                    [122.55561, 10.70004, 0], 
                    [122.55531, 10.70000, 0], 
                    [122.55476, 10.69993, 0], 
                    [122.55463, 10.69992, 0], 
                    [122.55444, 10.69989, 0], 
                    [122.55440, 10.69992, 0], 
                    [122.55438, 10.69993, 0], 
                    [122.55436, 10.69994, 0], 
                    [122.55434, 10.69995, 0], 
                    [122.55432, 10.69997, 0], 
                    [122.55430, 10.69999, 0], 
                    [122.55428, 10.70001, 0], 
                    [122.55426, 10.70003, 0], 
                    [122.55417, 10.70014, 0], 
                    [122.55397, 10.70092, 0], 
                    [122.55395, 10.70100, 0], 
                    [122.55393, 10.70107, 0], 
                    [122.55374, 10.70173, 0], 
                    [122.55356, 10.70237, 0], 
                    [122.55347, 10.70271, 0], 
                    [122.55343, 10.70289, 0], 
                    [122.55322, 10.70368, 0], 
                    [122.55304, 10.70431, 0], 
                    [122.55282, 10.70527, 0], 
                    [122.55272, 10.70563, 0], 
                    [122.55261, 10.70604, 0], 
                    [122.55239, 10.70686, 0], 
                    [122.55236, 10.70696, 0], 
                    [122.55219, 10.70758, 0], 
                    [122.55197, 10.70847, 0], 
                    [122.55195, 10.70852, 0], 
                    [122.55191, 10.70871, 0], 
                    [122.55187, 10.70887, 0], 
                    [122.55183, 10.70904, 0], 
                    [122.55180, 10.70920, 0], 
                    [122.55177, 10.70940, 0], 
                    [122.55173, 10.70967, 0], 
                    [122.55172, 10.70996, 0], 
                    [122.55172, 10.71010, 0], 
                    [122.55172, 10.71026, 0], 
                    [122.55172, 10.71040, 0], 
                    [122.55173, 10.71055, 0], 
                    [122.55174, 10.71069, 0], 
                    [122.55175, 10.71089, 0], 
                    [122.55176, 10.71098, 0], 
                    [122.55177, 10.71109, 0], 
                    [122.55179, 10.71124, 0], 
                    [122.55182, 10.71143, 0], 
                    [122.55188, 10.71170, 0], 
                    [122.55191, 10.71180, 0], 
                    [122.55193, 10.71188, 0], 
                    [122.55226, 10.71314, 0], 
                    [122.55230, 10.71332, 0], 
                    [122.55258, 10.71427, 0], 
                    [122.55266, 10.71462, 0], 
                    [122.55279, 10.71516, 0], 
                    [122.55283, 10.71535, 0], 
                    [122.55285, 10.71549, 0], 
                    [122.55290, 10.71573, 0], 
                    [122.55290, 10.71575, 0], 
                    [122.55292, 10.71600, 0], 
                    [122.55293, 10.71623, 0], 
                    [122.55293, 10.71647, 0], 
                    [122.55293, 10.71672, 0], 
                    [122.55292, 10.71697, 0], 
                    [122.55290, 10.71715, 0], 
                    [122.55288, 10.71734, 0], 
                    [122.55286, 10.71753, 0], 
                    [122.55283, 10.71770, 0], 
                    [122.55279, 10.71790, 0], 
                    [122.55275, 10.71810, 0], 
                    [122.55268, 10.71836, 0], 
                    [122.55262, 10.71858, 0], 
                    [122.55254, 10.71881, 0], 
                    [122.55247, 10.71901, 0], 
                    [122.55241, 10.71917, 0], 
                    [122.55234, 10.71935, 0], 
                    [122.55225, 10.71954, 0], 
                    [122.55212, 10.71950, 0], 
                    [122.55219, 10.71935, 0], 
                    [122.55225, 10.71919, 0], 
                    [122.55230, 10.71909, 0], 
                    [122.55243, 10.71883, 0], 
                    [122.55243, 10.71881, 0], 
                    [122.55258, 10.71833, 0], 
                    [122.55270, 10.71783, 0], 
                    [122.55278, 10.71738, 0], 
                    [122.55282, 10.71679, 0], 
                    [122.55281, 10.71614, 0], 
                    [122.55279, 10.71599, 0], 
                    [122.55277, 10.71580, 0], 
                    [122.55277, 10.71577, 0], 
                    [122.55273, 10.71555, 0], 
                    [122.55261, 10.71504, 0], 
                    [122.55255, 10.71489, 0], 
                    [122.55243, 10.71431, 0], 
                    [122.55217, 10.71337, 0], 
                    [122.55205, 10.71290, 0], 
                    [122.55194, 10.71245, 0], 
                    [122.55181, 10.71194, 0], 
                    [122.55176, 10.71169, 0], 
                    [122.55171, 10.71146, 0], 
                    [122.55167, 10.71127, 0], 
                    [122.55164, 10.71110, 0], 
                    [122.55158, 10.71070, 0], 
                    [122.55157, 10.71049, 0], 
                    [122.55156, 10.71032, 0], 
                    [122.55156, 10.71025, 0], 
                    [122.55158, 10.70983, 0], 
                    [122.55159, 10.70964, 0], 
                    [122.55101, 10.70938, 0], 
                    [122.55055, 10.70918, 0], 
                    [122.55024, 10.70903, 0], 
                    [122.55008, 10.70896, 0], 
                    [122.55005, 10.70894, 0], 
                    [122.55001, 10.70892, 0], 
                    [122.54968, 10.70873, 0], 
                    [122.54951, 10.70862, 0], 
                    [122.54935, 10.70850, 0], 
                    [122.54913, 10.70831, 0], 
                    [122.54910, 10.70833, 0], 
                    [122.54907, 10.70834, 0], 
                    [122.54905, 10.70835, 0], 
                    [122.54903, 10.70835, 0], 
                    [122.54901, 10.70836, 0], 
                    [122.54899, 10.70836, 0], 
                    [122.54896, 10.70836, 0], 
                    [122.54894, 10.70835, 0], 
                    [122.54892, 10.70835, 0], 
                    [122.54890, 10.70834, 0], 
                    [122.54888, 10.70833, 0], 
                    [122.54886, 10.70832, 0], 
                    [122.54883, 10.70829, 0], 
                    [122.54881, 10.70827, 0], 
                    [122.54880, 10.70826, 0], 
                    [122.54879, 10.70824, 0], 
                    [122.54878, 10.70822, 0], 
                    [122.54877, 10.70820, 0], 
                    [122.54877, 10.70818, 0], 
                    [122.54876, 10.70815, 0], 
                    [122.54876, 10.70813, 0], 
                    [122.54876, 10.70811, 0], 
                    [122.54877, 10.70809, 0], 
                    [122.54877, 10.70807, 0], 
                    [122.54878, 10.70804, 0], 
                    [122.54879, 10.70802, 0], 
                    [122.54880, 10.70801, 0], 
                    [122.54881, 10.70798, 0], 
                    [122.54886, 10.70795, 0], 
                    [122.54888, 10.70794, 0], 
                    [122.54890, 10.70793, 0], 
                    [122.54892, 10.70792, 0], 
                    [122.54894, 10.70791, 0], 
                    [122.54897, 10.70791, 0], 
                    [122.54899, 10.70791, 0], 
                    [122.54901, 10.70791, 0], 
                    [122.54903, 10.70791, 0], 
                    [122.54908, 10.70792, 0], 
                    [122.54914, 10.70766, 0], 
                    [122.54919, 10.70759, 0], 
                    [122.54922, 10.70757, 0], 
                    [122.54934, 10.70732, 0], 
                    [122.54981, 10.70649, 0], 
                    [122.54927, 10.70628, 0], 
                    [122.54846, 10.70597, 0], 
                    [122.54823, 10.70588, 0], 
                    [122.54804, 10.70583, 0], 
                    [122.54794, 10.70580, 0], 
                    [122.54783, 10.70579, 0], 
                    [122.54752, 10.70578, 0], 
                    [122.54713, 10.70578, 0], 
                    [122.54680, 10.70578, 0], 
                    [122.54664, 10.70580, 0], 
                    [122.54654, 10.70584, 0], 
                    [122.54646, 10.70591, 0], 
                    [122.54606, 10.70559, 0], 
                    [122.54601, 10.70556, 0], 
                    [122.54573, 10.70533, 0], 
                    [122.54534, 10.70506, 0], 
                    [122.54526, 10.70500, 0], 
                    [122.54505, 10.70482, 0], 
                    [122.54495, 10.70475, 0], 
                    [122.54470, 10.70454, 0], 
                    [122.54462, 10.70447, 0], 
                    [122.54427, 10.70415, 0], 
                    [122.54415, 10.70406, 0], 
                    [122.54412, 10.70405, 0], 
                    [122.54405, 10.70402, 0], 
                    [122.54392, 10.70424, 0], 
                    [122.54386, 10.70435, 0], 
                    [122.54380, 10.70444, 0], 
                    [122.54365, 10.70468, 0], 
                    [122.54361, 10.70475, 0], 
                    [122.54341, 10.70507, 0], 
                    [122.54338, 10.70511, 0], 
                    [122.54337, 10.70512, 0], 
                    [122.54322, 10.70544, 0], 
                    [122.54319, 10.70553, 0], 
                    [122.54314, 10.70565, 0], 
                    [122.54300, 10.70601, 0], 
                    [122.54299, 10.70605, 0], 
                    [122.54296, 10.70615, 0], 
                    [122.54294, 10.70620, 0], 
                    [122.54263, 10.70737, 0], 
                    [122.54273, 10.70753, 0], 
                    [122.54283, 10.70768, 0], 
                    [122.54306, 10.70810, 0], 
                    [122.54324, 10.70856, 0], 
                    [122.54349, 10.70941, 0], 
                    [122.54350, 10.70948, 0], 
                    [122.54352, 10.70957, 0], 
                    [122.54355, 10.70980, 0], 
                    [122.54365, 10.71017, 0], 
                    [122.54368, 10.71027, 0], 
                    [122.54383, 10.71063, 0], 
                    [122.54397, 10.71098, 0], 
                    [122.54401, 10.71108, 0], 
                    [122.54429, 10.71164, 0], 
                    [122.54503, 10.71320, 0], 
                    [122.54513, 10.71337, 0], 
                    [122.54541, 10.71388, 0], 
                    [122.54553, 10.71410, 0], 
                    [122.54579, 10.71467, 0], 
                    [122.54590, 10.71489, 0], 
                    [122.54597, 10.71514, 0], 
                    [122.54607, 10.71566, 0], 
                    [122.54621, 10.71610, 0], 
                    [122.54648, 10.71666, 0], 
                    [122.54654, 10.71676, 0], 
                    [122.54666, 10.71693, 0], 
                    [122.54698, 10.71735, 0], 
                    [122.54706, 10.71745, 0], 
                    [122.54699, 10.71750, 0], 
                    [122.54698, 10.71748, 0], 
                    [122.54661, 10.71702, 0], 
                    [122.54658, 10.71698, 0], 
                    [122.54654, 10.71691, 0]  
                ]
            }, 
            "properties": {
                "name": "Directions from JD Bakery Cafe – Gen. Luna, General Luna Street, La Paz, Iloilo City, Iloilo to Festive Walk Mall, Megaworld Boulevard, Mandurriao, Iloilo City, Iloilo", 
                "styleUrl": "#line-1267FF-5000-nodesc", 
                "stroke-opacity": 1, 
                "stroke": "#1267ff", 
                "stroke-width": 5
            }
        }, 
        {
            "type": "Feature", 
            "geometry": { "type": "Point", "coordinates": [122.5603651, 10.7004549, 0] }, 
            "properties": {
                "name": "JD Bakery Cafe – Gen. Luna, General Luna Street, La Paz, Iloilo City, Iloilo", 
                "styleUrl": "#icon-1899-DB4436-nodesc", 
                "label-scale": 0, 
                "icon-opacity": 1, 
                "icon-color": "#db4436", 
                "icon-scale": 1, 
                "icon-offset": [32, 64], 
                "icon-offset-units": ["pixels", "insetPixels"], 
                "icon": "https://www.gstatic.com/mapspro/images/stock/503-wht-blank_maps.png"
            }
        }, 
        {
            "type": "Feature", 
            "geometry": { "type": "Point", "coordinates": [122.5527924, 10.7159904, 0] }, 
            "properties": {
                "name": "Zuri Hotel, Benigno Aquino Avenue, Mandurriao, Iloilo City, Iloilo", 
                "styleUrl": "#icon-1899-DB4436-nodesc", 
                "label-scale": 0, 
                "icon-opacity": 1, 
                "icon-color": "#db4436", 
                "icon-scale": 1, 
                "icon-offset": [32, 64], 
                "icon-offset-units": ["pixels", "insetPixels"], 
                "icon": "https://www.gstatic.com/mapspro/images/stock/503-wht-blank_maps.png"
            }
        }, 
        {
            "type": "Feature", 
            "geometry": { "type": "Point", "coordinates": [122.5492651, 10.7062819, 0] }, 
            "properties": {
                "name": "Atria Park District, Benigno Aquino Avenue, Mandurriao, Iloilo City, Iloilo", 
                "styleUrl": "#icon-1899-DB4436-nodesc", 
                "label-scale": 0, 
                "icon-opacity": 1, 
                "icon-color": "#db4436", 
                "icon-scale": 1, 
                "icon-offset": [32, 64], 
                "icon-offset-units": ["pixels", "insetPixels"], 
                "icon": "https://www.gstatic.com/mapspro/images/stock/503-wht-blank_maps.png"
            }
        }, 
        {
            "type": "Feature", 
            "geometry": { "type": "Point", "coordinates": [122.5449536, 10.7047452, 0] }, 
            "properties": {
                "name": "Tabucan Elementary School, San Rafael-Tabucan Road, Mandurriao, Iloilo City, Iloilo", 
                "styleUrl": "#icon-1899-DB4436-nodesc", 
                "label-scale": 0, 
                "icon-opacity": 1, 
                "icon-color": "#db4436", 
                "icon-scale": 1, 
                "icon-offset": [32, 64], 
                "icon-offset-units": ["pixels", "insetPixels"], 
                "icon": "https://www.gstatic.com/mapspro/images/stock/503-wht-blank_maps.png"
            }
        }, 
        {
            "type": "Feature", 
            "geometry": { "type": "Point", "coordinates": [122.5465366, 10.7169101, 0] }, 
            "properties": {
                "name": "Festive Walk Mall, Megaworld Boulevard, Mandurriao, Iloilo City, Iloilo", 
                "styleUrl": "#icon-1899-DB4436-nodesc", 
                "label-scale": 0, 
                "icon-opacity": 1, 
                "icon-color": "#db4436", 
                "icon-scale": 1, 
                "icon-offset": [32, 64], 
                "icon-offset-units": ["pixels", "insetPixels"], 
                "icon": "https://www.gstatic.com/mapspro/images/stock/503-wht-blank_maps.png"
            }
        }
    ]
}
