{
    "type": "FeatureCollection", 
    "features": [
        {
            "type": "Feature", 
            "geometry": {
                "type": "LineString", 
                "coordinates": [
                    [122.54654, 10.71691, 0], 
                    [122.54642, 10.71674, 0], 
                    [122.54631, 10.71655, 0], 
                    [122.54623, 10.71642, 0], 
                    [122.54612, 10.71614, 0], 
                    [122.54609, 10.71606, 0], 
                    [122.54606, 10.71599, 0], 
                    [122.54596, 10.71571, 0], 
                    [122.54589, 10.71546, 0], 
                    [122.54584, 10.71518, 0], 
                    [122.54578, 10.71493, 0], 
                    [122.54590, 10.71489, 0], 
                    [122.54597, 10.71514, 0], 
                    [122.54607, 10.71566, 0], 
                    [122.54621, 10.71610, 0], 
                    [122.54648, 10.71666, 0], 
                    [122.54654, 10.71676, 0], 
                    [122.54666, 10.71693, 0], 
                    [122.54698, 10.71735, 0], 
                    [122.54706, 10.71745, 0], 
                    [122.54721, 10.71764, 0], 
                    [122.54732, 10.71779, 0], 
                    [122.54755, 10.71814, 0], 
                    [122.54769, 10.71837, 0], 
                    [122.54775, 10.71849, 0], 
                    [122.54778, 10.71854, 0], 
                    [122.54784, 10.71855, 0], 
                    [122.54807, 10.71857, 0], 
                    [122.54850, 10.71861, 0], 
                    [122.54875, 10.71863, 0], 
                    [122.54918, 10.71868, 0], 
                    [122.54983, 10.71874, 0], 
                    [122.54999, 10.71876, 0], 
                    [122.55008, 10.71877, 0], 
                    [122.55014, 10.71878, 0], 
                    [122.55021, 10.71880, 0], 
                    [122.55040, 10.71886, 0], 
                    [122.55058, 10.71892, 0], 
                    [122.55103, 10.71909, 0], 
                    [122.55139, 10.71923, 0], 
                    [122.55199, 10.71946, 0], 
                    [122.55212, 10.71950, 0], 
                    [122.55219, 10.71935, 0], 
                    [122.55225, 10.71919, 0], 
                    [122.55230, 10.71909, 0], 
                    [122.55243, 10.71883, 0], 
                    [122.55243, 10.71881, 0], 
                    [122.55258, 10.71833, 0], 
                    [122.55270, 10.71783, 0], 
                    [122.55278, 10.71738, 0], 
                    [122.55282, 10.71679, 0], 
                    [122.55281, 10.71614, 0], 
                    [122.55277, 10.71580, 0], 
                    [122.55277, 10.71577, 0], 
                    [122.55273, 10.71555, 0], 
                    [122.55261, 10.71504, 0], 
                    [122.55255, 10.71489, 0], 
                    [122.55244, 10.71437, 0], 
                    [122.55243, 10.71431, 0], 
                    [122.55217, 10.71337, 0], 
                    [122.55205, 10.71290, 0], 
                    [122.55194, 10.71245, 0], 
                    [122.55181, 10.71194, 0], 
                    [122.55176, 10.71169, 0], 
                    [122.55171, 10.71146, 0], 
                    [122.55167, 10.71127, 0], 
                    [122.55164, 10.71110, 0], 
                    [122.55158, 10.71070, 0], 
                    [122.55157, 10.71049, 0], 
                    [122.55156, 10.71032, 0], 
                    [122.55156, 10.71025, 0], 
                    [122.55158, 10.70983, 0], 
                    [122.55159, 10.70964, 0], 
                    [122.55162, 10.70945, 0], 
                    [122.55165, 10.70927, 0], 
                    [122.55168, 10.70912, 0], 
                    [122.55171, 10.70894, 0], 
                    [122.55180, 10.70860, 0], 
                    [122.55209, 10.70756, 0], 
                    [122.55214, 10.70737, 0], 
                    [122.55227, 10.70687, 0], 
                    [122.55235, 10.70658, 0], 
                    [122.55253, 10.70591, 0], 
                    [122.55271, 10.70523, 0], 
                    [122.55276, 10.70500, 0], 
                    [122.55282, 10.70476, 0], 
                    [122.55288, 10.70452, 0], 
                    [122.55296, 10.70417, 0], 
                    [122.55311, 10.70364, 0], 
                    [122.55319, 10.70333, 0], 
                    [122.55337, 10.70268, 0], 
                    [122.55339, 10.70263, 0], 
                    [122.55345, 10.70235, 0], 
                    [122.55364, 10.70168, 0], 
                    [122.55382, 10.70101, 0], 
                    [122.55384, 10.70095, 0], 
                    [122.55385, 10.70089, 0], 
                    [122.55388, 10.70078, 0], 
                    [122.55406, 10.70010, 0], 
                    [122.55415, 10.69985, 0], 
                    [122.55419, 10.69970, 0], 
                    [122.55427, 10.69971, 0], 
                    [122.55451, 10.69975, 0], 
                    [122.55479, 10.69978, 0], 
                    [122.55493, 10.69980, 0], 
                    [122.55528, 10.69984, 0], 
                    [122.55558, 10.69988, 0], 
                    [122.55567, 10.69990, 0], 
                    [122.55574, 10.69991, 0], 
                    [122.55575, 10.69992, 0], 
                    [122.55578, 10.69993, 0], 
                    [122.55587, 10.69994, 0], 
                    [122.55599, 10.69995, 0], 
                    [122.55648, 10.70000, 0], 
                    [122.55658, 10.70001, 0], 
                    [122.55728, 10.70008, 0], 
                    [122.55733, 10.70008, 0], 
                    [122.55758, 10.70011, 0], 
                    [122.55774, 10.70012, 0], 
                    [122.55793, 10.70013, 0], 
                    [122.55921, 10.70025, 0], 
                    [122.55989, 10.70030, 0], 
                    [122.55992, 10.70031, 0], 
                    [122.56024, 10.70034, 0], 
                    [122.56075, 10.70039, 0], 
                    [122.56101, 10.70044, 0], 
                    [122.56111, 10.70046, 0], 
                    [122.56130, 10.70051, 0], 
                    [122.56135, 10.70052, 0], 
                    [122.56149, 10.70055, 0], 
                    [122.56177, 10.70059, 0], 
                    [122.56222, 10.70066, 0], 
                    [122.56285, 10.70076, 0], 
                    [122.56300, 10.70079, 0], 
                    [122.56344, 10.70085, 0], 
                    [122.56387, 10.70091, 0], 
                    [122.56464, 10.70103, 0], 
                    [122.56486, 10.70106, 0], 
                    [122.56502, 10.70108, 0], 
                    [122.56532, 10.70112, 0], 
                    [122.56550, 10.70115, 0], 
                    [122.56553, 10.70115, 0], 
                    [122.56574, 10.70118, 0], 
                    [122.56646, 10.70128, 0], 
                    [122.56696, 10.70135, 0], 
                    [122.56709, 10.70137, 0], 
                    [122.56748, 10.70142, 0], 
                    [122.56771, 10.70146, 0], 
                    [122.56790, 10.70150, 0], 
                    [122.56812, 10.70155, 0], 
                    [122.56813, 10.70155, 0], 
                    [122.56823, 10.70158, 0], 
                    [122.56833, 10.70163, 0], 
                    [122.56840, 10.70171, 0], 
                    [122.56846, 10.70168, 0], 
                    [122.56885, 10.70157, 0], 
                    [122.56895, 10.70155, 0], 
                    [122.56898, 10.70154, 0], 
                    [122.56902, 10.70153, 0], 
                    [122.56902, 10.70152, 0], 
                    [122.56903, 10.70152, 0], 
                    [122.56903, 10.70151, 0], 
                    [122.56903, 10.70150, 0], 
                    [122.56904, 10.70150, 0], 
                    [122.56904, 10.70149, 0], 
                    [122.56905, 10.70148, 0], 
                    [122.56910, 10.70129, 0], 
                    [122.56911, 10.70096, 0], 
                    [122.56911, 10.70009, 0], 
                    [122.56911, 10.69931, 0], 
                    [122.56907, 10.69914, 0], 
                    [122.56906, 10.69818, 0], 
                    [122.56906, 10.69797, 0], 
                    [122.56906, 10.69795, 0], 
                    [122.56906, 10.69781, 0], 
                    [122.56905, 10.69676, 0], 
                    [122.56905, 10.69667, 0], 
                    [122.56905, 10.69663, 0], 
                    [122.56906, 10.69659, 0], 
                    [122.56907, 10.69658, 0], 
                    [122.56910, 10.69651, 0], 
                    [122.56915, 10.69643, 0], 
                    [122.56927, 10.69629, 0], 
                    [122.56986, 10.69557, 0], 
                    [122.57049, 10.69475, 0], 
                    [122.57050, 10.69474, 0], 
                    [122.57101, 10.69392, 0], 
                    [122.57154, 10.69363, 0], 
                    [122.57162, 10.69358, 0], 
                    [122.57172, 10.69352, 0], 
                    [122.57203, 10.69331, 0], 
                    [122.57257, 10.69292, 0], 
                    [122.57273, 10.69287, 0], 
                    [122.57293, 10.69273, 0], 
                    [122.57336, 10.69232, 0], 
                    [122.57388, 10.69180, 0], 
                    [122.57372, 10.69166, 0], 
                    [122.57357, 10.69168, 0], 
                    [122.57251, 10.69183, 0], 
                    [122.57166, 10.69198, 0], 
                    [122.57165, 10.69198, 0], 
                    [122.57066, 10.69206, 0], 
                    [122.57001, 10.69206, 0], 
                    [122.56999, 10.69206, 0], 
                    [122.56979, 10.69213, 0], 
                    [122.56919, 10.69212, 0], 
                    [122.56919, 10.69213, 0], 
                    [122.56918, 10.69213, 0], 
                    [122.56918, 10.69214, 0], 
                    [122.56917, 10.69214, 0], 
                    [122.56916, 10.69214, 0], 
                    [122.56915, 10.69214, 0], 
                    [122.56915, 10.69215, 0], 
                    [122.56914, 10.69215, 0], 
                    [122.56913, 10.69215, 0], 
                    [122.56912, 10.69215, 0], 
                    [122.56912, 10.69214, 0], 
                    [122.56911, 10.69214, 0], 
                    [122.56910, 10.69214, 0], 
                    [122.56910, 10.69213, 0], 
                    [122.56909, 10.69213, 0], 
                    [122.56908, 10.69212, 0], 
                    [122.56908, 10.69211, 0], 
                    [122.56907, 10.69211, 0], 
                    [122.56907, 10.69210, 0], 
                    [122.56906, 10.69209, 0], 
                    [122.56906, 10.69208, 0], 
                    [122.56906, 10.69207, 0], 
                    [122.56906, 10.69206, 0], 
                    [122.56906, 10.69205, 0], 
                    [122.56907, 10.69205, 0], 
                    [122.56907, 10.69204, 0], 
                    [122.56907, 10.69203, 0], 
                    [122.56908, 10.69203, 0], 
                    [122.56908, 10.69202, 0], 
                    [122.56911, 10.69200, 0], 
                    [122.56913, 10.69200, 0], 
                    [122.56914, 10.69200, 0], 
                    [122.56915, 10.69200, 0], 
                    [122.56916, 10.69200, 0], 
                    [122.56917, 10.69200, 0], 
                    [122.56918, 10.69201, 0], 
                    [122.56919, 10.69201, 0], 
                    [122.56919, 10.69202, 0], 
                    [122.56920, 10.69202, 0], 
                    [122.56920, 10.69203, 0], 
                    [122.56960, 10.69203, 0], 
                    [122.56975, 10.69202, 0], 
                    [122.56979, 10.69203, 0], 
                    [122.56979, 10.69213, 0], 
                    [122.56919, 10.69212, 0], 
                    [122.56919, 10.69213, 0], 
                    [122.56918, 10.69213, 0], 
                    [122.56918, 10.69214, 0], 
                    [122.56917, 10.69214, 0], 
                    [122.56916, 10.69214, 0], 
                    [122.56915, 10.69214, 0], 
                    [122.56915, 10.69215, 0], 
                    [122.56914, 10.69215, 0], 
                    [122.56913, 10.69215, 0], 
                    [122.56910, 10.69309, 0], 
                    [122.56910, 10.69367, 0], 
                    [122.56909, 10.69463, 0], 
                    [122.56908, 10.69488, 0], 
                    [122.56909, 10.69511, 0], 
                    [122.56910, 10.69590, 0], 
                    [122.56910, 10.69619, 0], 
                    [122.56906, 10.69640, 0], 
                    [122.56904, 10.69650, 0], 
                    [122.56848, 10.69634, 0], 
                    [122.56787, 10.69617, 0], 
                    [122.56698, 10.69589, 0], 
                    [122.56638, 10.69571, 0], 
                    [122.56481, 10.69523, 0], 
                    [122.56481, 10.69572, 0], 
                    [122.56480, 10.69748, 0], 
                    [122.56479, 10.69768, 0], 
                    [122.56440, 10.69763, 0], 
                    [122.56429, 10.69761, 0], 
                    [122.56383, 10.69755, 0], 
                    [122.56372, 10.69753, 0], 
                    [122.56328, 10.69746, 0], 
                    [122.56289, 10.69741, 0], 
                    [122.56208, 10.69730, 0], 
                    [122.56173, 10.69726, 0], 
                    [122.56175, 10.69788, 0], 
                    [122.56175, 10.69804, 0], 
                    [122.56174, 10.69894, 0], 
                    [122.56175, 10.69947, 0], 
                    [122.56177, 10.69997, 0], 
                    [122.56178, 10.70041, 0], 
                    [122.56177, 10.70059, 0], 
                    [122.56175, 10.70070, 0], 
                    [122.56157, 10.70067, 0], 
                    [122.56142, 10.70064, 0], 
                    [122.56140, 10.70064, 0], 
                    [122.56132, 10.70062, 0], 
                    [122.56099, 10.70055, 0], 
                    [122.56081, 10.70052, 0], 
                    [122.56075, 10.70051, 0], 
                    [122.56063, 10.70049, 0], 
                    [122.56055, 10.70047, 0], 
                    [122.56045, 10.70046, 0], 
                    [122.56037, 10.70045, 0]  
                ]
            }, 
            "properties": {
                "name": "Directions from Festive Walk Mall, Megaworld Boulevard, Mandurriao, Iloilo City, Iloilo to JD Bakery Cafe – Gen. Luna, General Luna Street, La Paz, Iloilo City, Iloilo", 
                "styleUrl": "#line-1267FF-5000-nodesc", 
                "stroke-opacity": 1, 
                "stroke": "#1267ff", 
                "stroke-width": 5
            }
        }, 
        {
            "type": "Feature", 
            "geometry": { "type": "Point", "coordinates": [122.5465366, 10.7169101, 0] }, 
            "properties": {
                "name": "Festive Walk Mall, Megaworld Boulevard, Mandurriao, Iloilo City, Iloilo", 
                "styleUrl": "#icon-1899-DB4436-nodesc", 
                "label-scale": 0, 
                "icon-opacity": 1, 
                "icon-color": "#db4436", 
                "icon-scale": 1, 
                "icon-offset": [32, 64], 
                "icon-offset-units": ["pixels", "insetPixels"], 
                "icon": "https://www.gstatic.com/mapspro/images/stock/503-wht-blank_maps.png"
            }
        }, 
        {
            "type": "Feature", 
            "geometry": { "type": "Point", "coordinates": [122.5524441, 10.7143744, 0] }, 
            "properties": {
                "name": "PH73+P48, Jalandoni St, Mandurriao, Iloilo City, Iloilo, Philippines", 
                "styleUrl": "#icon-1899-DB4436-nodesc", 
                "label-scale": 0, 
                "icon-opacity": 1, 
                "icon-color": "#db4436", 
                "icon-scale": 1, 
                "icon-offset": [32, 64], 
                "icon-offset-units": ["pixels", "insetPixels"], 
                "icon": "https://www.gstatic.com/mapspro/images/stock/503-wht-blank_maps.png"
            }
        }, 
        {
            "type": "Feature", 
            "geometry": { "type": "Point", "coordinates": [122.5681237, 10.7015457, 0] }, 
            "properties": {
                "name": "Atrium Iloilo Commercial Center, General Luna Street, Iloilo City Proper, Iloilo City, Iloilo, Philippines", 
                "styleUrl": "#icon-1899-DB4436-nodesc", 
                "label-scale": 0, 
                "icon-opacity": 1, 
                "icon-color": "#db4436", 
                "icon-scale": 1, 
                "icon-offset": [32, 64], 
                "icon-offset-units": ["pixels", "insetPixels"], 
                "icon": "https://www.gstatic.com/mapspro/images/stock/503-wht-blank_maps.png"
            }
        }, 
        {
            "type": "Feature", 
            "geometry": { "type": "Point", "coordinates": [122.5692676, 10.6962877, 0] }, 
            "properties": {
                "name": "Socorro Drug Company, Iznart St. Cor. J.M. Basa St., City Proper, Iloilo City, Iloilo, Philippines", 
                "styleUrl": "#icon-1899-DB4436-nodesc", 
                "label-scale": 0, 
                "icon-opacity": 1, 
                "icon-color": "#db4436", 
                "icon-scale": 1, 
                "icon-offset": [32, 64], 
                "icon-offset-units": ["pixels", "insetPixels"], 
                "icon": "https://www.gstatic.com/mapspro/images/stock/503-wht-blank_maps.png"
            }
        }, 
        {
            "type": "Feature", 
            "geometry": { "type": "Point", "coordinates": [122.5733644, 10.6923154, 0] }, 
            "properties": {
                "name": "Plaza Libertad, Zamora Street, Iloilo City Proper, Iloilo City, Iloilo, Philippines", 
                "styleUrl": "#icon-1899-DB4436-nodesc", 
                "label-scale": 0, 
                "icon-opacity": 1, 
                "icon-color": "#db4436", 
                "icon-scale": 1, 
                "icon-offset": [32, 64], 
                "icon-offset-units": ["pixels", "insetPixels"], 
                "icon": "https://www.gstatic.com/mapspro/images/stock/503-wht-blank_maps.png"
            }
        }, 
        {
            "type": "Feature", 
            "geometry": { "type": "Point", "coordinates": [122.5695958, 10.6920277, 0] }, 
            "properties": {
                "name": "University of Iloilo - Phinma Education, Rizal Street, Iloilo City Proper, Iloilo City, Iloilo, Philippines", 
                "styleUrl": "#icon-1899-DB4436-nodesc", 
                "label-scale": 0, 
                "icon-opacity": 1, 
                "icon-color": "#db4436", 
                "icon-scale": 1, 
                "icon-offset": [32, 64], 
                "icon-offset-units": ["pixels", "insetPixels"], 
                "icon": "https://www.gstatic.com/mapspro/images/stock/503-wht-blank_maps.png"
            }
        }, 
        {
            "type": "Feature", 
            "geometry": { "type": "Point", "coordinates": [122.5684774, 10.6963401, 0] }, 
            "properties": {
                "name": "UNITOP, Iloilo City Proper, Iloilo City, Iloilo, Philippines", 
                "styleUrl": "#icon-1899-DB4436-nodesc", 
                "label-scale": 0, 
                "icon-opacity": 1, 
                "icon-color": "#db4436", 
                "icon-scale": 1, 
                "icon-offset": [32, 64], 
                "icon-offset-units": ["pixels", "insetPixels"], 
                "icon": "https://www.gstatic.com/mapspro/images/stock/503-wht-blank_maps.png"
            }
        }, 
        {
            "type": "Feature", 
            "geometry": { "type": "Point", "coordinates": [122.5648069, 10.6957178, 0] }, 
            "properties": {
                "name": "Maybank Ledesma, Mabini Street, Iloilo City Proper, Iloilo City, Iloilo, Philippines", 
                "styleUrl": "#icon-1899-DB4436-nodesc", 
                "label-scale": 0, 
                "icon-opacity": 1, 
                "icon-color": "#db4436", 
                "icon-scale": 1, 
                "icon-offset": [32, 64], 
                "icon-offset-units": ["pixels", "insetPixels"], 
                "icon": "https://www.gstatic.com/mapspro/images/stock/503-wht-blank_maps.png"
            }
        }, 
        {
            "type": "Feature", 
            "geometry": { "type": "Point", "coordinates": [122.5620788, 10.697303, 0] }, 
            "properties": {
                "name": "Feline's Gift Shop, Delgado Street, Iloilo City Proper, Iloilo City, Iloilo", 
                "styleUrl": "#icon-1899-DB4436-nodesc", 
                "label-scale": 0, 
                "icon-opacity": 1, 
                "icon-color": "#db4436", 
                "icon-scale": 1, 
                "icon-offset": [32, 64], 
                "icon-offset-units": ["pixels", "insetPixels"], 
                "icon": "https://www.gstatic.com/mapspro/images/stock/503-wht-blank_maps.png"
            }
        }, 
        {
            "type": "Feature", 
            "geometry": { "type": "Point", "coordinates": [122.5603651, 10.7004549, 0] }, 
            "properties": {
                "name": "JD Bakery Cafe – Gen. Luna, General Luna Street, La Paz, Iloilo City, Iloilo", 
                "styleUrl": "#icon-1899-DB4436-nodesc", 
                "label-scale": 0, 
                "icon-opacity": 1, 
                "icon-color": "#db4436", 
                "icon-scale": 1, 
                "icon-offset": [32, 64], 
                "icon-offset-units": ["pixels", "insetPixels"], 
                "icon": "https://www.gstatic.com/mapspro/images/stock/503-wht-blank_maps.png"
            }
        }
    ]
}
