{
    "type": "FeatureCollection", 
    "features": [
        {
            "type": "Feature", 
            "geometry": {
                "type": "LineString", 
                "coordinates": [
                    [122.55503, 10.69447, 0], 
                    [122.55510, 10.69449, 0], 
                    [122.55519, 10.69445, 0], 
                    [122.55567, 10.69409, 0], 
                    [122.55607, 10.69388, 0], 
                    [122.55665, 10.69377, 0], 
                    [122.55739, 10.69360, 0], 
                    [122.55799, 10.69346, 0], 
                    [122.55809, 10.69344, 0], 
                    [122.55835, 10.69339, 0], 
                    [122.55855, 10.69336, 0], 
                    [122.55863, 10.69335, 0], 
                    [122.55872, 10.69334, 0], 
                    [122.55881, 10.69335, 0], 
                    [122.55889, 10.69336, 0], 
                    [122.55981, 10.69367, 0], 
                    [122.56034, 10.69384, 0], 
                    [122.56123, 10.69412, 0], 
                    [122.56139, 10.69417, 0], 
                    [122.56175, 10.69429, 0], 
                    [122.56226, 10.69444, 0], 
                    [122.56327, 10.69475, 0], 
                    [122.56328, 10.69469, 0], 
                    [122.56328, 10.69466, 0], 
                    [122.56327, 10.69440, 0], 
                    [122.56325, 10.69365, 0], 
                    [122.56325, 10.69320, 0], 
                    [122.56476, 10.69331, 0], 
                    [122.56476, 10.69333, 0], 
                    [122.56477, 10.69378, 0], 
                    [122.56479, 10.69442, 0], 
                    [122.56479, 10.69462, 0], 
                    [122.56481, 10.69513, 0], 
                    [122.56481, 10.69523, 0], 
                    [122.56480, 10.69748, 0], 
                    [122.56479, 10.69768, 0], 
                    [122.56537, 10.69775, 0], 
                    [122.56586, 10.69781, 0], 
                    [122.56642, 10.69788, 0], 
                    [122.56672, 10.69785, 0], 
                    [122.56771, 10.69785, 0], 
                    [122.56777, 10.69785, 0], 
                    [122.56781, 10.69785, 0], 
                    [122.56786, 10.69656, 0], 
                    [122.56787, 10.69617, 0], 
                    [122.56787, 10.69608, 0], 
                    [122.56789, 10.69483, 0], 
                    [122.56789, 10.69441, 0], 
                    [122.56789, 10.69402, 0], 
                    [122.56791, 10.69356, 0], 
                    [122.56793, 10.69294, 0], 
                    [122.56794, 10.69251, 0], 
                    [122.56795, 10.69193, 0], 
                    [122.56795, 10.69191, 0], 
                    [122.56908, 10.69202, 0], 
                    [122.56908, 10.69203, 0], 
                    [122.56907, 10.69203, 0], 
                    [122.56907, 10.69204, 0], 
                    [122.56907, 10.69205, 0], 
                    [122.56906, 10.69205, 0], 
                    [122.56906, 10.69206, 0], 
                    [122.56906, 10.69207, 0], 
                    [122.56906, 10.69208, 0], 
                    [122.56906, 10.69209, 0], 
                    [122.56907, 10.69210, 0], 
                    [122.56907, 10.69211, 0], 
                    [122.56908, 10.69211, 0], 
                    [122.56908, 10.69212, 0], 
                    [122.56909, 10.69213, 0], 
                    [122.56910, 10.69213, 0], 
                    [122.56910, 10.69214, 0], 
                    [122.56911, 10.69214, 0], 
                    [122.56912, 10.69214, 0], 
                    [122.56912, 10.69215, 0], 
                    [122.56913, 10.69215, 0], 
                    [122.56914, 10.69215, 0], 
                    [122.56915, 10.69215, 0], 
                    [122.56915, 10.69214, 0], 
                    [122.56916, 10.69214, 0], 
                    [122.56917, 10.69214, 0], 
                    [122.56918, 10.69214, 0], 
                    [122.56918, 10.69213, 0], 
                    [122.56919, 10.69213, 0], 
                    [122.56919, 10.69212, 0], 
                    [122.56979, 10.69213, 0], 
                    [122.56999, 10.69206, 0], 
                    [122.57001, 10.69206, 0], 
                    [122.57066, 10.69206, 0], 
                    [122.57165, 10.69198, 0], 
                    [122.57166, 10.69198, 0], 
                    [122.57251, 10.69183, 0], 
                    [122.57316, 10.69174, 0], 
                    [122.57357, 10.69168, 0], 
                    [122.57372, 10.69166, 0], 
                    [122.57388, 10.69180, 0], 
                    [122.57336, 10.69232, 0], 
                    [122.57293, 10.69273, 0], 
                    [122.57273, 10.69287, 0], 
                    [122.57257, 10.69292, 0], 
                    [122.57203, 10.69331, 0], 
                    [122.57172, 10.69352, 0], 
                    [122.57162, 10.69358, 0], 
                    [122.57154, 10.69363, 0], 
                    [122.57129, 10.69376, 0], 
                    [122.57101, 10.69392, 0], 
                    [122.57050, 10.69474, 0], 
                    [122.57049, 10.69475, 0], 
                    [122.56986, 10.69557, 0], 
                    [122.56915, 10.69643, 0], 
                    [122.56910, 10.69651, 0], 
                    [122.56907, 10.69658, 0], 
                    [122.56906, 10.69659, 0], 
                    [122.56905, 10.69663, 0], 
                    [122.56905, 10.69667, 0], 
                    [122.56905, 10.69676, 0], 
                    [122.56906, 10.69781, 0], 
                    [122.56906, 10.69795, 0], 
                    [122.56906, 10.69797, 0], 
                    [122.56906, 10.69818, 0], 
                    [122.56907, 10.69914, 0], 
                    [122.56911, 10.69931, 0], 
                    [122.56911, 10.70009, 0], 
                    [122.56911, 10.70085, 0], 
                    [122.56911, 10.70096, 0], 
                    [122.56910, 10.70129, 0], 
                    [122.56905, 10.70148, 0], 
                    [122.56904, 10.70149, 0], 
                    [122.56904, 10.70150, 0], 
                    [122.56903, 10.70150, 0], 
                    [122.56903, 10.70151, 0], 
                    [122.56903, 10.70152, 0], 
                    [122.56902, 10.70152, 0], 
                    [122.56902, 10.70153, 0], 
                    [122.56898, 10.70154, 0], 
                    [122.56895, 10.70155, 0], 
                    [122.56885, 10.70157, 0], 
                    [122.56846, 10.70168, 0], 
                    [122.56840, 10.70171, 0], 
                    [122.56833, 10.70163, 0], 
                    [122.56823, 10.70158, 0], 
                    [122.56813, 10.70155, 0], 
                    [122.56790, 10.70150, 0], 
                    [122.56771, 10.70146, 0], 
                    [122.56748, 10.70142, 0], 
                    [122.56709, 10.70137, 0], 
                    [122.56696, 10.70135, 0], 
                    [122.56646, 10.70128, 0], 
                    [122.56574, 10.70118, 0], 
                    [122.56553, 10.70115, 0], 
                    [122.56550, 10.70115, 0], 
                    [122.56532, 10.70112, 0], 
                    [122.56502, 10.70108, 0], 
                    [122.56486, 10.70106, 0], 
                    [122.56464, 10.70103, 0], 
                    [122.56387, 10.70091, 0], 
                    [122.56344, 10.70085, 0], 
                    [122.56300, 10.70079, 0], 
                    [122.56285, 10.70076, 0], 
                    [122.56222, 10.70066, 0], 
                    [122.56177, 10.70059, 0], 
                    [122.56149, 10.70055, 0], 
                    [122.56135, 10.70052, 0], 
                    [122.56130, 10.70051, 0], 
                    [122.56111, 10.70046, 0], 
                    [122.56101, 10.70044, 0], 
                    [122.56075, 10.70039, 0], 
                    [122.56024, 10.70034, 0], 
                    [122.55992, 10.70031, 0], 
                    [122.55989, 10.70030, 0], 
                    [122.55921, 10.70025, 0], 
                    [122.55793, 10.70013, 0], 
                    [122.55774, 10.70012, 0], 
                    [122.55758, 10.70011, 0], 
                    [122.55733, 10.70008, 0], 
                    [122.55728, 10.70008, 0], 
                    [122.55658, 10.70001, 0], 
                    [122.55648, 10.70000, 0], 
                    [122.55599, 10.69995, 0], 
                    [122.55587, 10.69994, 0], 
                    [122.55578, 10.69993, 0], 
                    [122.55564, 10.69996, 0], 
                    [122.55504, 10.69988, 0], 
                    [122.55445, 10.69980, 0], 
                    [122.55427, 10.69977, 0], 
                    [122.55409, 10.69975, 0], 
                    [122.55406, 10.69975, 0], 
                    [122.55391, 10.69973, 0], 
                    [122.55367, 10.69970, 0], 
                    [122.55340, 10.69967, 0], 
                    [122.55317, 10.69964, 0], 
                    [122.55267, 10.69959, 0], 
                    [122.55257, 10.69953, 0], 
                    [122.55231, 10.69948, 0], 
                    [122.55182, 10.69942, 0], 
                    [122.55170, 10.69941, 0], 
                    [122.55156, 10.69940, 0], 
                    [122.55117, 10.69935, 0], 
                    [122.55103, 10.69933, 0], 
                    [122.55020, 10.69922, 0], 
                    [122.55001, 10.69919, 0], 
                    [122.54992, 10.69916, 0], 
                    [122.54977, 10.69909, 0], 
                    [122.54952, 10.69896, 0], 
                    [122.54939, 10.69888, 0], 
                    [122.54917, 10.69877, 0], 
                    [122.54866, 10.69849, 0], 
                    [122.54797, 10.69809, 0], 
                    [122.54756, 10.69782, 0], 
                    [122.54755, 10.69782, 0], 
                    [122.54749, 10.69779, 0], 
                    [122.54724, 10.69766, 0], 
                    [122.54691, 10.69746, 0], 
                    [122.54619, 10.69705, 0], 
                    [122.54560, 10.69670, 0], 
                    [122.54538, 10.69657, 0], 
                    [122.54530, 10.69652, 0], 
                    [122.54521, 10.69647, 0], 
                    [122.54513, 10.69642, 0], 
                    [122.54491, 10.69629, 0], 
                    [122.54488, 10.69626, 0], 
                    [122.54445, 10.69599, 0], 
                    [122.54437, 10.69607, 0], 
                    [122.54434, 10.69610, 0], 
                    [122.54427, 10.69617, 0], 
                    [122.54425, 10.69620, 0], 
                    [122.54414, 10.69633, 0], 
                    [122.54410, 10.69638, 0], 
                    [122.54408, 10.69640, 0], 
                    [122.54382, 10.69677, 0], 
                    [122.54341, 10.69734, 0], 
                    [122.54277, 10.69702, 0], 
                    [122.54237, 10.69683, 0], 
                    [122.54236, 10.69682, 0], 
                    [122.54214, 10.69670, 0], 
                    [122.54202, 10.69662, 0], 
                    [122.54179, 10.69648, 0], 
                    [122.54161, 10.69637, 0], 
                    [122.54086, 10.69589, 0], 
                    [122.54070, 10.69580, 0], 
                    [122.54032, 10.69556, 0], 
                    [122.53999, 10.69540, 0], 
                    [122.53996, 10.69538, 0], 
                    [122.53965, 10.69520, 0], 
                    [122.53960, 10.69518, 0], 
                    [122.53916, 10.69489, 0], 
                    [122.53872, 10.69457, 0], 
                    [122.53741, 10.69371, 0], 
                    [122.53715, 10.69353, 0], 
                    [122.53678, 10.69327, 0], 
                    [122.53644, 10.69304, 0], 
                    [122.53603, 10.69277, 0], 
                    [122.53562, 10.69249, 0], 
                    [122.53541, 10.69234, 0], 
                    [122.53511, 10.69213, 0], 
                    [122.53506, 10.69209, 0], 
                    [122.53496, 10.69203, 0], 
                    [122.53470, 10.69187, 0], 
                    [122.53432, 10.69164, 0], 
                    [122.53389, 10.69142, 0], 
                    [122.53336, 10.69115, 0], 
                    [122.53280, 10.69091, 0], 
                    [122.53253, 10.69081, 0], 
                    [122.53211, 10.69066, 0], 
                    [122.53190, 10.69059, 0], 
                    [122.53178, 10.69054, 0], 
                    [122.53164, 10.69048, 0], 
                    [122.53142, 10.69039, 0], 
                    [122.53110, 10.69024, 0], 
                    [122.53091, 10.69016, 0], 
                    [122.53065, 10.69002, 0], 
                    [122.53041, 10.68990, 0], 
                    [122.53026, 10.68982, 0], 
                    [122.52953, 10.68945, 0], 
                    [122.52928, 10.68933, 0], 
                    [122.52921, 10.68930, 0], 
                    [122.52909, 10.68924, 0], 
                    [122.52891, 10.68916, 0], 
                    [122.52874, 10.68909, 0], 
                    [122.52864, 10.68905, 0], 
                    [122.52856, 10.68902, 0], 
                    [122.52854, 10.68902, 0], 
                    [122.52844, 10.68899, 0], 
                    [122.52833, 10.68896, 0], 
                    [122.52810, 10.68892, 0], 
                    [122.52808, 10.68892, 0], 
                    [122.52768, 10.68882, 0], 
                    [122.52749, 10.68877, 0], 
                    [122.52742, 10.68876, 0], 
                    [122.52734, 10.68874, 0], 
                    [122.52724, 10.68873, 0], 
                    [122.52718, 10.68872, 0], 
                    [122.52710, 10.68872, 0], 
                    [122.52708, 10.68872, 0], 
                    [122.52702, 10.68872, 0], 
                    [122.52687, 10.68873, 0], 
                    [122.52621, 10.68885, 0], 
                    [122.52568, 10.68894, 0], 
                    [122.52534, 10.68899, 0], 
                    [122.52511, 10.68902, 0], 
                    [122.52508, 10.68902, 0], 
                    [122.52492, 10.68904, 0], 
                    [122.52480, 10.68905, 0], 
                    [122.52461, 10.68905, 0], 
                    [122.52437, 10.68906, 0], 
                    [122.52395, 10.68906, 0], 
                    [122.52366, 10.68905, 0], 
                    [122.52301, 10.68903, 0], 
                    [122.52273, 10.68901, 0], 
                    [122.52169, 10.68897, 0], 
                    [122.52140, 10.68896, 0], 
                    [122.52110, 10.68895, 0], 
                    [122.52089, 10.68896, 0], 
                    [122.52085, 10.68896, 0], 
                    [122.52072, 10.68895, 0], 
                    [122.51985, 10.68894, 0], 
                    [122.51955, 10.68894, 0], 
                    [122.51947, 10.68894, 0], 
                    [122.51826, 10.68891, 0], 
                    [122.51824, 10.68891, 0], 
                    [122.51788, 10.68890, 0], 
                    [122.51673, 10.68886, 0], 
                    [122.51648, 10.68891, 0], 
                    [122.51639, 10.68893, 0], 
                    [122.51610, 10.68907, 0], 
                    [122.51601, 10.68911, 0], 
                    [122.51561, 10.68930, 0], 
                    [122.51531, 10.68942, 0], 
                    [122.51470, 10.68964, 0], 
                    [122.51362, 10.68984, 0], 
                    [122.51353, 10.68986, 0], 
                    [122.51320, 10.68989, 0], 
                    [122.51297, 10.68993, 0], 
                    [122.51296, 10.68993, 0], 
                    [122.51282, 10.68997, 0], 
                    [122.51267, 10.69001, 0], 
                    [122.51238, 10.69009, 0], 
                    [122.51222, 10.69014, 0], 
                    [122.51135, 10.69041, 0], 
                    [122.51096, 10.69052, 0], 
                    [122.51047, 10.69065, 0], 
                    [122.50904, 10.69107, 0], 
                    [122.50845, 10.69124, 0], 
                    [122.50790, 10.69139, 0], 
                    [122.50753, 10.69146, 0], 
                    [122.50695, 10.69158, 0], 
                    [122.50689, 10.69159, 0], 
                    [122.50620, 10.69173, 0], 
                    [122.50509, 10.69195, 0], 
                    [122.50448, 10.69209, 0], 
                    [122.50441, 10.69210, 0], 
                    [122.50398, 10.69220, 0], 
                    [122.50292, 10.69244, 0], 
                    [122.50231, 10.69265, 0], 
                    [122.50076, 10.69317, 0], 
                    [122.50067, 10.69320, 0], 
                    [122.50003, 10.69340, 0], 
                    [122.49977, 10.69348, 0]  
                ]
            }, 
            "properties": {
                "name": "Directions from Mohon Terminal, Osmeña Street, Villa Arevalo District, Iloilo City, Iloilo to MHV3+PXQ, Infante St, Molo, Iloilo City, 5000 Iloilo, Philippines", 
                "styleUrl": "#line-1267FF-5000-nodesc", 
                "stroke-opacity": 1, 
                "stroke": "#1267ff", 
                "stroke-width": 5
            }
        }, 
        {
            "type": "Feature", 
            "geometry": { "type": "Point", "coordinates": [122.499771, 10.6934751, 0] }, 
            "properties": {
                "name": "Mohon Terminal, Osmeña Street, Villa Arevalo District, Iloilo City, Iloilo", 
                "styleUrl": "#icon-1899-DB4436-nodesc", 
                "label-scale": 0, 
                "icon-opacity": 1, 
                "icon-color": "#db4436", 
                "icon-scale": 1, 
                "icon-offset": [32, 64], 
                "icon-offset-units": ["pixels", "insetPixels"], 
                "icon": "https://www.gstatic.com/mapspro/images/stock/503-wht-blank_maps.png"
            }
        }, 
        {
            "type": "Feature", 
            "geometry": { "type": "Point", "coordinates": [122.516098, 10.6890699, 0] }, 
            "properties": {
                "name": "Plaza Villa, Yulo Drive, Villa Arevalo District, Iloilo City, Iloilo", 
                "styleUrl": "#icon-1899-DB4436-nodesc", 
                "label-scale": 0, 
                "icon-opacity": 1, 
                "icon-color": "#db4436", 
                "icon-scale": 1, 
                "icon-offset": [32, 64], 
                "icon-offset-units": ["pixels", "insetPixels"], 
                "icon": "https://www.gstatic.com/mapspro/images/stock/503-wht-blank_maps.png"
            }
        }, 
        {
            "type": "Feature", 
            "geometry": { "type": "Point", "coordinates": [122.5691106, 10.7008474, 0] }, 
            "properties": {
                "name": "YMCA - Iloilo, Iloilo City Proper, Iloilo City, Iloilo", 
                "styleUrl": "#icon-1899-DB4436-nodesc", 
                "label-scale": 0, 
                "icon-opacity": 1, 
                "icon-color": "#db4436", 
                "icon-scale": 1, 
                "icon-offset": [32, 64], 
                "icon-offset-units": ["pixels", "insetPixels"], 
                "icon": "https://www.gstatic.com/mapspro/images/stock/503-wht-blank_maps.png"
            }
        }, 
        {
            "type": "Feature", 
            "geometry": { "type": "Point", "coordinates": [122.5712931, 10.6937638, 0] }, 
            "properties": {
                "name": "Roberto's, JM Basa Street, Iloilo City Proper, Iloilo City, Iloilo", 
                "styleUrl": "#icon-1899-DB4436-nodesc", 
                "label-scale": 0, 
                "icon-opacity": 1, 
                "icon-color": "#db4436", 
                "icon-scale": 1, 
                "icon-offset": [32, 64], 
                "icon-offset-units": ["pixels", "insetPixels"], 
                "icon": "https://www.gstatic.com/mapspro/images/stock/503-wht-blank_maps.png"
            }
        }, 
        {
            "type": "Feature", 
            "geometry": { "type": "Point", "coordinates": [122.5731649, 10.6917358, 0] }, 
            "properties": {
                "name": "MHRF+M3C, Rizal St, Iloilo City Proper, Iloilo City, Iloilo, Philippines", 
                "styleUrl": "#icon-1899-DB4436-nodesc", 
                "label-scale": 0, 
                "icon-opacity": 1, 
                "icon-color": "#db4436", 
                "icon-scale": 1, 
                "icon-offset": [32, 64], 
                "icon-offset-units": ["pixels", "insetPixels"], 
                "icon": "https://www.gstatic.com/mapspro/images/stock/503-wht-blank_maps.png"
            }
        }, 
        {
            "type": "Feature", 
            "geometry": { "type": "Point", "coordinates": [122.5679494, 10.6919073, 0] }, 
            "properties": {
                "name": "MHR9+P6J, Rizal St, Iloilo City Proper, Iloilo City, Iloilo, Philippines", 
                "styleUrl": "#icon-1899-DB4436-nodesc", 
                "label-scale": 0, 
                "icon-opacity": 1, 
                "icon-color": "#db4436", 
                "icon-scale": 1, 
                "icon-offset": [32, 64], 
                "icon-offset-units": ["pixels", "insetPixels"], 
                "icon": "https://www.gstatic.com/mapspro/images/stock/503-wht-blank_maps.png"
            }
        }, 
        {
            "type": "Feature", 
            "geometry": { "type": "Point", "coordinates": [122.5677724, 10.697848, 0] }, 
            "properties": {
                "name": "Corner Valeria, MHX9+44M, Delgado St, Iloilo City Proper, Iloilo City, Iloilo, Philippines", 
                "styleUrl": "#icon-1899-DB4436-nodesc", 
                "label-scale": 0, 
                "icon-opacity": 1, 
                "icon-color": "#db4436", 
                "icon-scale": 1, 
                "icon-offset": [32, 64], 
                "icon-offset-units": ["pixels", "insetPixels"], 
                "icon": "https://www.gstatic.com/mapspro/images/stock/503-wht-blank_maps.png"
            }
        }, 
        {
            "type": "Feature", 
            "geometry": { "type": "Point", "coordinates": [122.5647583, 10.6933332, 0] }, 
            "properties": {
                "name": "104 De Leon St, Iloilo City Proper, Iloilo City, Iloilo, Philippines", 
                "styleUrl": "#icon-1899-DB4436-nodesc", 
                "label-scale": 0, 
                "icon-opacity": 1, 
                "icon-color": "#db4436", 
                "icon-scale": 1, 
                "icon-offset": [32, 64], 
                "icon-offset-units": ["pixels", "insetPixels"], 
                "icon": "https://www.gstatic.com/mapspro/images/stock/503-wht-blank_maps.png"
            }
        }, 
        {
            "type": "Feature", 
            "geometry": { "type": "Point", "coordinates": [122.5632707, 10.6943997, 0] }, 
            "properties": {
                "name": "208b Fuentes St, Iloilo City Proper, Iloilo City, Iloilo, Philippines", 
                "styleUrl": "#icon-1899-DB4436-nodesc", 
                "label-scale": 0, 
                "icon-opacity": 1, 
                "icon-color": "#db4436", 
                "icon-scale": 1, 
                "icon-offset": [32, 64], 
                "icon-offset-units": ["pixels", "insetPixels"], 
                "icon": "https://www.gstatic.com/mapspro/images/stock/503-wht-blank_maps.png"
            }
        }, 
        {
            "type": "Feature", 
            "geometry": { "type": "Point", "coordinates": [122.5550266, 10.6944738, 0] }, 
            "properties": {
                "name": "MHV3+PXQ, Infante St, Molo, Iloilo City, 5000 Iloilo, Philippines", 
                "styleUrl": "#icon-1899-DB4436-nodesc", 
                "label-scale": 0, 
                "icon-opacity": 1, 
                "icon-color": "#db4436", 
                "icon-scale": 1, 
                "icon-offset": [32, 64], 
                "icon-offset-units": ["pixels", "insetPixels"], 
                "icon": "https://www.gstatic.com/mapspro/images/stock/503-wht-blank_maps.png"
            }
        }, 
        {
            "type": "Feature", 
            "geometry": {
                "type": "LineString", 
                "coordinates": [
                    [122.55349, 10.69968, 0], 
                    [122.55367, 10.69970, 0], 
                    [122.55391, 10.69973, 0], 
                    [122.55406, 10.69975, 0], 
                    [122.55409, 10.69975, 0], 
                    [122.55427, 10.69977, 0], 
                    [122.55445, 10.69980, 0], 
                    [122.55504, 10.69988, 0], 
                    [122.55564, 10.69996, 0], 
                    [122.55566, 10.69998, 0], 
                    [122.55576, 10.70004, 0], 
                    [122.55578, 10.69993, 0], 
                    [122.55575, 10.69992, 0], 
                    [122.55574, 10.69991, 0], 
                    [122.55567, 10.69990, 0], 
                    [122.55558, 10.69988, 0], 
                    [122.55528, 10.69984, 0], 
                    [122.55493, 10.69980, 0], 
                    [122.55479, 10.69978, 0], 
                    [122.55451, 10.69975, 0], 
                    [122.55444, 10.69971, 0], 
                    [122.55442, 10.69969, 0], 
                    [122.55440, 10.69967, 0], 
                    [122.55438, 10.69965, 0], 
                    [122.55437, 10.69963, 0], 
                    [122.55436, 10.69960, 0], 
                    [122.55435, 10.69947, 0], 
                    [122.55440, 10.69929, 0], 
                    [122.55448, 10.69909, 0], 
                    [122.55458, 10.69884, 0], 
                    [122.55460, 10.69873, 0], 
                    [122.55461, 10.69868, 0], 
                    [122.55462, 10.69861, 0], 
                    [122.55473, 10.69769, 0], 
                    [122.55476, 10.69747, 0], 
                    [122.55488, 10.69654, 0], 
                    [122.55491, 10.69628, 0], 
                    [122.55496, 10.69570, 0], 
                    [122.55499, 10.69542, 0], 
                    [122.55500, 10.69521, 0], 
                    [122.55505, 10.69467, 0], 
                    [122.55506, 10.69461, 0], 
                    [122.55510, 10.69449, 0], 
                    [122.55503, 10.69447, 0]  
                ]
            }, 
            "properties": {
                "name": "Directions from MHV3+PXQ, Infante St, Molo, Iloilo City, 5000 Iloilo, Philippines to 102 General Luna St, Molo, Iloilo City, Iloilo, Philippines", 
                "styleUrl": "#line-1267FF-5000-nodesc", 
                "stroke-opacity": 1, 
                "stroke": "#1267ff", 
                "stroke-width": 5
            }
        }, 
        {
            "type": "Feature", 
            "geometry": { "type": "Point", "coordinates": [122.5550266, 10.6944738, 0] }, 
            "properties": {
                "name": "MHV3+PXQ, Infante St, Molo, Iloilo City, 5000 Iloilo, Philippines", 
                "styleUrl": "#icon-1899-DB4436-nodesc", 
                "label-scale": 0, 
                "icon-opacity": 1, 
                "icon-color": "#db4436", 
                "icon-scale": 1, 
                "icon-offset": [32, 64], 
                "icon-offset-units": ["pixels", "insetPixels"], 
                "icon": "https://www.gstatic.com/mapspro/images/stock/503-wht-blank_maps.png"
            }
        }, 
        {
            "type": "Feature", 
            "geometry": { "type": "Point", "coordinates": [122.553494, 10.69968, 0] }, 
            "properties": {
                "name": "102 General Luna St, Molo, Iloilo City, Iloilo, Philippines", 
                "styleUrl": "#icon-1899-DB4436-nodesc", 
                "label-scale": 0, 
                "icon-opacity": 1, 
                "icon-color": "#db4436", 
                "icon-scale": 1, 
                "icon-offset": [32, 64], 
                "icon-offset-units": ["pixels", "insetPixels"], 
                "icon": "https://www.gstatic.com/mapspro/images/stock/503-wht-blank_maps.png"
            }
        }
    ]
}
