{
    "type": "FeatureCollection", 
    "features": [
        {
            "type": "Feature", 
            "geometry": {
                "type": "LineString", 
                "coordinates": [
                    [122.55481, 10.69705, 0], 
                    [122.55488, 10.69654, 0], 
                    [122.55604, 10.69665, 0], 
                    [122.55616, 10.69666, 0], 
                    [122.55617, 10.69667, 0], 
                    [122.55638, 10.69669, 0], 
                    [122.55660, 10.69672, 0], 
                    [122.55779, 10.69684, 0], 
                    [122.55784, 10.69684, 0], 
                    [122.55790, 10.69685, 0], 
                    [122.55862, 10.69693, 0], 
                    [122.55896, 10.69697, 0], 
                    [122.56015, 10.69706, 0], 
                    [122.56030, 10.69708, 0], 
                    [122.56064, 10.69713, 0], 
                    [122.56173, 10.69726, 0], 
                    [122.56289, 10.69741, 0], 
                    [122.56328, 10.69746, 0], 
                    [122.56372, 10.69753, 0], 
                    [122.56383, 10.69755, 0], 
                    [122.56429, 10.69761, 0], 
                    [122.56440, 10.69763, 0], 
                    [122.56479, 10.69768, 0], 
                    [122.56537, 10.69775, 0], 
                    [122.56586, 10.69781, 0], 
                    [122.56642, 10.69788, 0], 
                    [122.56672, 10.69785, 0], 
                    [122.56771, 10.69785, 0], 
                    [122.56781, 10.69785, 0], 
                    [122.56781, 10.69765, 0], 
                    [122.56786, 10.69656, 0], 
                    [122.56787, 10.69617, 0], 
                    [122.56787, 10.69608, 0], 
                    [122.56699, 10.69580, 0], 
                    [122.56639, 10.69561, 0], 
                    [122.56637, 10.69486, 0], 
                    [122.56636, 10.69439, 0], 
                    [122.56636, 10.69394, 0], 
                    [122.56634, 10.69345, 0], 
                    [122.56677, 10.69348, 0], 
                    [122.56678, 10.69319, 0], 
                    [122.56677, 10.69310, 0], 
                    [122.56678, 10.69319, 0], 
                    [122.56677, 10.69348, 0], 
                    [122.56634, 10.69345, 0], 
                    [122.56610, 10.69343, 0], 
                    [122.56600, 10.69342, 0], 
                    [122.56592, 10.69341, 0], 
                    [122.56574, 10.69340, 0], 
                    [122.56558, 10.69338, 0], 
                    [122.56555, 10.69338, 0], 
                    [122.56546, 10.69337, 0], 
                    [122.56541, 10.69337, 0], 
                    [122.56536, 10.69336, 0], 
                    [122.56531, 10.69336, 0], 
                    [122.56525, 10.69335, 0], 
                    [122.56523, 10.69335, 0], 
                    [122.56476, 10.69331, 0], 
                    [122.56477, 10.69378, 0], 
                    [122.56479, 10.69442, 0], 
                    [122.56479, 10.69462, 0], 
                    [122.56485, 10.69465, 0], 
                    [122.56487, 10.69467, 0], 
                    [122.56488, 10.69468, 0], 
                    [122.56487, 10.69467, 0], 
                    [122.56485, 10.69465, 0], 
                    [122.56479, 10.69462, 0], 
                    [122.56481, 10.69513, 0], 
                    [122.56427, 10.69496, 0], 
                    [122.56328, 10.69466, 0], 
                    [122.56206, 10.69428, 0], 
                    [122.56175, 10.69419, 0], 
                    [122.56018, 10.69370, 0], 
                    [122.56007, 10.69366, 0], 
                    [122.55892, 10.69331, 0], 
                    [122.55885, 10.69329, 0], 
                    [122.55882, 10.69328, 0], 
                    [122.55872, 10.69328, 0], 
                    [122.55854, 10.69329, 0], 
                    [122.55780, 10.69342, 0], 
                    [122.55774, 10.69344, 0], 
                    [122.55762, 10.69346, 0], 
                    [122.55737, 10.69352, 0], 
                    [122.55707, 10.69360, 0], 
                    [122.55694, 10.69364, 0], 
                    [122.55673, 10.69368, 0], 
                    [122.55663, 10.69369, 0], 
                    [122.55658, 10.69369, 0], 
                    [122.55649, 10.69368, 0], 
                    [122.55644, 10.69366, 0], 
                    [122.55635, 10.69360, 0], 
                    [122.55600, 10.69333, 0], 
                    [122.55591, 10.69325, 0], 
                    [122.55576, 10.69312, 0], 
                    [122.55564, 10.69300, 0], 
                    [122.55556, 10.69294, 0], 
                    [122.55547, 10.69289, 0], 
                    [122.55536, 10.69282, 0], 
                    [122.55530, 10.69278, 0], 
                    [122.55534, 10.69269, 0], 
                    [122.55530, 10.69278, 0], 
                    [122.55527, 10.69294, 0], 
                    [122.55526, 10.69297, 0], 
                    [122.55517, 10.69383, 0], 
                    [122.55515, 10.69396, 0], 
                    [122.55514, 10.69401, 0], 
                    [122.55503, 10.69447, 0], 
                    [122.55489, 10.69569, 0], 
                    [122.55487, 10.69593, 0], 
                    [122.55483, 10.69653, 0], 
                    [122.55478, 10.69689, 0], 
                    [122.55471, 10.69746, 0], 
                    [122.55469, 10.69754, 0], 
                    [122.55467, 10.69769, 0], 
                    [122.55464, 10.69787, 0], 
                    [122.55463, 10.69791, 0], 
                    [122.55459, 10.69830, 0], 
                    [122.55456, 10.69854, 0], 
                    [122.55455, 10.69863, 0], 
                    [122.55453, 10.69873, 0], 
                    [122.55448, 10.69890, 0], 
                    [122.55439, 10.69917, 0], 
                    [122.55424, 10.69953, 0], 
                    [122.55419, 10.69970, 0], 
                    [122.55415, 10.69985, 0], 
                    [122.55406, 10.70010, 0], 
                    [122.55388, 10.70078, 0], 
                    [122.55385, 10.70089, 0], 
                    [122.55384, 10.70095, 0], 
                    [122.55382, 10.70101, 0], 
                    [122.55364, 10.70168, 0], 
                    [122.55345, 10.70235, 0], 
                    [122.55339, 10.70263, 0], 
                    [122.55337, 10.70268, 0], 
                    [122.55319, 10.70333, 0], 
                    [122.55311, 10.70364, 0], 
                    [122.55296, 10.70417, 0], 
                    [122.55288, 10.70452, 0], 
                    [122.55282, 10.70476, 0], 
                    [122.55276, 10.70500, 0], 
                    [122.55271, 10.70523, 0], 
                    [122.55253, 10.70591, 0], 
                    [122.55235, 10.70658, 0], 
                    [122.55227, 10.70687, 0], 
                    [122.55214, 10.70737, 0], 
                    [122.55209, 10.70756, 0], 
                    [122.55180, 10.70860, 0], 
                    [122.55171, 10.70894, 0], 
                    [122.55168, 10.70912, 0], 
                    [122.55165, 10.70927, 0], 
                    [122.55162, 10.70945, 0], 
                    [122.55159, 10.70964, 0], 
                    [122.55158, 10.70983, 0], 
                    [122.55156, 10.71025, 0], 
                    [122.55156, 10.71032, 0], 
                    [122.55157, 10.71049, 0], 
                    [122.55158, 10.71070, 0], 
                    [122.55164, 10.71110, 0], 
                    [122.55167, 10.71127, 0], 
                    [122.55171, 10.71146, 0], 
                    [122.55176, 10.71169, 0], 
                    [122.55181, 10.71194, 0], 
                    [122.55194, 10.71245, 0], 
                    [122.55205, 10.71290, 0], 
                    [122.55186, 10.71294, 0], 
                    [122.55150, 10.71302, 0], 
                    [122.55159, 10.71329, 0], 
                    [122.55166, 10.71355, 0], 
                    [122.55175, 10.71390, 0], 
                    [122.55176, 10.71395, 0], 
                    [122.55192, 10.71460, 0], 
                    [122.55204, 10.71490, 0], 
                    [122.55228, 10.71519, 0], 
                    [122.55261, 10.71504, 0], 
                    [122.55269, 10.71556, 0], 
                    [122.55273, 10.71580, 0], 
                    [122.55273, 10.71583, 0], 
                    [122.55277, 10.71616, 0], 
                    [122.55279, 10.71681, 0], 
                    [122.55276, 10.71739, 0], 
                    [122.55268, 10.71783, 0], 
                    [122.55257, 10.71832, 0], 
                    [122.55243, 10.71879, 0], 
                    [122.55242, 10.71881, 0], 
                    [122.55230, 10.71909, 0], 
                    [122.55225, 10.71919, 0], 
                    [122.55219, 10.71935, 0], 
                    [122.55212, 10.71950, 0], 
                    [122.55199, 10.71946, 0], 
                    [122.55139, 10.71923, 0], 
                    [122.55103, 10.71909, 0], 
                    [122.55058, 10.71892, 0], 
                    [122.55040, 10.71886, 0], 
                    [122.55021, 10.71880, 0], 
                    [122.55014, 10.71878, 0], 
                    [122.55008, 10.71877, 0], 
                    [122.54999, 10.71876, 0], 
                    [122.54983, 10.71874, 0], 
                    [122.54918, 10.71868, 0], 
                    [122.54875, 10.71863, 0], 
                    [122.54850, 10.71861, 0], 
                    [122.54807, 10.71857, 0], 
                    [122.54784, 10.71855, 0], 
                    [122.54778, 10.71854, 0], 
                    [122.54775, 10.71849, 0], 
                    [122.54769, 10.71837, 0], 
                    [122.54755, 10.71814, 0], 
                    [122.54732, 10.71779, 0], 
                    [122.54721, 10.71764, 0], 
                    [122.54706, 10.71745, 0], 
                    [122.54698, 10.71735, 0], 
                    [122.54666, 10.71693, 0], 
                    [122.54654, 10.71676, 0], 
                    [122.54648, 10.71666, 0], 
                    [122.54634, 10.71641, 0], 
                    [122.54628, 10.71627, 0], 
                    [122.54621, 10.71610, 0], 
                    [122.54612, 10.71584, 0], 
                    [122.54607, 10.71566, 0], 
                    [122.54597, 10.71514, 0], 
                    [122.54590, 10.71489, 0], 
                    [122.54578, 10.71493, 0], 
                    [122.54560, 10.71499, 0], 
                    [122.54564, 10.71509, 0], 
                    [122.54571, 10.71528, 0], 
                    [122.54574, 10.71534, 0], 
                    [122.54578, 10.71540, 0], 
                    [122.54580, 10.71542, 0], 
                    [122.54581, 10.71542, 0], 
                    [122.54584, 10.71544, 0], 
                    [122.54589, 10.71546, 0], 
                    [122.54596, 10.71571, 0], 
                    [122.54606, 10.71599, 0], 
                    [122.54609, 10.71606, 0], 
                    [122.54612, 10.71614, 0], 
                    [122.54623, 10.71642, 0], 
                    [122.54631, 10.71655, 0], 
                    [122.54642, 10.71674, 0], 
                    [122.54658, 10.71698, 0], 
                    [122.54661, 10.71702, 0], 
                    [122.54698, 10.71748, 0], 
                    [122.54699, 10.71750, 0], 
                    [122.54704, 10.71757, 0], 
                    [122.54713, 10.71770, 0], 
                    [122.54719, 10.71778, 0], 
                    [122.54737, 10.71804, 0], 
                    [122.54746, 10.71820, 0], 
                    [122.54750, 10.71826, 0], 
                    [122.54757, 10.71838, 0], 
                    [122.54765, 10.71853, 0], 
                    [122.54824, 10.71976, 0], 
                    [122.54831, 10.71993, 0], 
                    [122.54882, 10.72107, 0], 
                    [122.54900, 10.72150, 0], 
                    [122.54902, 10.72159, 0], 
                    [122.54903, 10.72165, 0], 
                    [122.54904, 10.72174, 0], 
                    [122.54903, 10.72186, 0], 
                    [122.54897, 10.72216, 0], 
                    [122.54893, 10.72231, 0], 
                    [122.54891, 10.72238, 0], 
                    [122.54890, 10.72243, 0], 
                    [122.54889, 10.72247, 0], 
                    [122.54886, 10.72267, 0], 
                    [122.54890, 10.72283, 0], 
                    [122.54891, 10.72303, 0], 
                    [122.54894, 10.72319, 0], 
                    [122.54902, 10.72350, 0], 
                    [122.54907, 10.72371, 0], 
                    [122.54914, 10.72402, 0], 
                    [122.54915, 10.72406, 0], 
                    [122.54917, 10.72416, 0], 
                    [122.54926, 10.72450, 0], 
                    [122.54929, 10.72458, 0], 
                    [122.54932, 10.72463, 0], 
                    [122.54933, 10.72466, 0], 
                    [122.54936, 10.72469, 0], 
                    [122.54954, 10.72490, 0], 
                    [122.54943, 10.72505, 0], 
                    [122.54914, 10.72545, 0], 
                    [122.54893, 10.72574, 0], 
                    [122.54880, 10.72588, 0], 
                    [122.54841, 10.72628, 0], 
                    [122.54818, 10.72651, 0], 
                    [122.54789, 10.72678, 0], 
                    [122.54781, 10.72686, 0], 
                    [122.54684, 10.72768, 0], 
                    [122.54531, 10.72895, 0], 
                    [122.54461, 10.72950, 0], 
                    [122.54431, 10.72974, 0], 
                    [122.54346, 10.73042, 0], 
                    [122.54293, 10.73084, 0], 
                    [122.54267, 10.73104, 0], 
                    [122.54254, 10.73115, 0], 
                    [122.54251, 10.73117, 0], 
                    [122.54182, 10.73175, 0], 
                    [122.54176, 10.73180, 0], 
                    [122.54144, 10.73205, 0], 
                    [122.54110, 10.73232, 0], 
                    [122.54096, 10.73243, 0], 
                    [122.54033, 10.73296, 0], 
                    [122.54003, 10.73326, 0], 
                    [122.53992, 10.73338, 0], 
                    [122.53976, 10.73357, 0], 
                    [122.53963, 10.73373, 0], 
                    [122.53949, 10.73392, 0], 
                    [122.53933, 10.73416, 0], 
                    [122.53915, 10.73444, 0], 
                    [122.53901, 10.73469, 0], 
                    [122.53889, 10.73492, 0], 
                    [122.53880, 10.73513, 0], 
                    [122.53864, 10.73552, 0], 
                    [122.53854, 10.73580, 0], 
                    [122.53848, 10.73599, 0], 
                    [122.53842, 10.73617, 0], 
                    [122.53837, 10.73637, 0], 
                    [122.53831, 10.73661, 0], 
                    [122.53828, 10.73681, 0], 
                    [122.53823, 10.73710, 0], 
                    [122.53820, 10.73728, 0], 
                    [122.53817, 10.73768, 0], 
                    [122.53817, 10.73825, 0], 
                    [122.53818, 10.73841, 0], 
                    [122.53820, 10.73867, 0], 
                    [122.53823, 10.73893, 0], 
                    [122.53829, 10.73923, 0], 
                    [122.53837, 10.73955, 0], 
                    [122.53890, 10.74125, 0], 
                    [122.53909, 10.74181, 0], 
                    [122.53920, 10.74218, 0], 
                    [122.53933, 10.74268, 0], 
                    [122.53940, 10.74301, 0], 
                    [122.53944, 10.74322, 0], 
                    [122.53948, 10.74357, 0], 
                    [122.53950, 10.74378, 0], 
                    [122.53950, 10.74395, 0], 
                    [122.53950, 10.74412, 0], 
                    [122.53949, 10.74423, 0], 
                    [122.53942, 10.74476, 0], 
                    [122.53934, 10.74554, 0], 
                    [122.53931, 10.74576, 0], 
                    [122.53926, 10.74636, 0], 
                    [122.53923, 10.74662, 0], 
                    [122.53921, 10.74692, 0], 
                    [122.53920, 10.74701, 0], 
                    [122.53910, 10.74782, 0], 
                    [122.53905, 10.74817, 0], 
                    [122.53900, 10.74848, 0], 
                    [122.53896, 10.74878, 0], 
                    [122.53893, 10.74896, 0], 
                    [122.53892, 10.74904, 0], 
                    [122.53889, 10.74907, 0], 
                    [122.53888, 10.74908, 0], 
                    [122.53887, 10.74910, 0], 
                    [122.53886, 10.74913, 0], 
                    [122.53882, 10.74950, 0], 
                    [122.53868, 10.75027, 0], 
                    [122.53865, 10.75051, 0], 
                    [122.53861, 10.75082, 0], 
                    [122.53859, 10.75123, 0], 
                    [122.53859, 10.75160, 0], 
                    [122.53857, 10.75246, 0], 
                    [122.53857, 10.75282, 0], 
                    [122.53845, 10.75283, 0], 
                    [122.53827, 10.75285, 0], 
                    [122.53821, 10.75286, 0], 
                    [122.53829, 10.75309, 0], 
                    [122.53829, 10.75310, 0], 
                    [122.53833, 10.75326, 0], 
                    [122.53833, 10.75333, 0], 
                    [122.53833, 10.75335, 0], 
                    [122.53834, 10.75336, 0], 
                    [122.53834, 10.75337, 0], 
                    [122.53835, 10.75338, 0]  
                ]
            }, 
            "properties": {
                "name": "Directions from GT Town Center Pavia, Pavia, Iloilo to UPV - College of Management, Iloilo City Proper, Iloilo City, Iloilo", 
                "styleUrl": "#line-1267FF-5000-nodesc", 
                "stroke-opacity": 1, 
                "stroke": "#1267ff", 
                "stroke-width": 5
            }
        }, 
        {
            "type": "Feature", 
            "geometry": { "type": "Point", "coordinates": [122.5383523, 10.7533792, 0] }, 
            "properties": {
                "name": "GT Town Center Pavia, Pavia, Iloilo", 
                "styleUrl": "#icon-1899-DB4436-nodesc", 
                "label-scale": 0, 
                "icon-opacity": 1, 
                "icon-color": "#db4436", 
                "icon-scale": 1, 
                "icon-offset": [32, 64], 
                "icon-offset-units": ["pixels", "insetPixels"], 
                "icon": "https://www.gstatic.com/mapspro/images/stock/503-wht-blank_maps.png"
            }
        }, 
        {
            "type": "Feature", 
            "geometry": { "type": "Point", "coordinates": [122.5494275, 10.7250526, 0] }, 
            "properties": {
                "name": "Carlos' Bakeshop, Mandurriao, Iloilo City, Iloilo", 
                "styleUrl": "#icon-1899-DB4436-nodesc", 
                "label-scale": 0, 
                "icon-opacity": 1, 
                "icon-color": "#db4436", 
                "icon-scale": 1, 
                "icon-offset": [32, 64], 
                "icon-offset-units": ["pixels", "insetPixels"], 
                "icon": "https://www.gstatic.com/mapspro/images/stock/503-wht-blank_maps.png"
            }
        }, 
        {
            "type": "Feature", 
            "geometry": { "type": "Point", "coordinates": [122.5458035, 10.7154168, 0] }, 
            "properties": {
                "name": "Richmonde Hotel Iloilo, Mandurriao, Iloilo City, Iloilo", 
                "styleUrl": "#icon-1899-DB4436-nodesc", 
                "label-scale": 0, 
                "icon-opacity": 1, 
                "icon-color": "#db4436", 
                "icon-scale": 1, 
                "icon-offset": [32, 64], 
                "icon-offset-units": ["pixels", "insetPixels"], 
                "icon": "https://www.gstatic.com/mapspro/images/stock/503-wht-blank_maps.png"
            }
        }, 
        {
            "type": "Feature", 
            "geometry": { "type": "Point", "coordinates": [122.5517573, 10.7139462, 0] }, 
            "properties": {
                "name": "SM City Iloilo, Benigno Aquino Avenue, Mandurriao, Iloilo City, Iloilo", 
                "styleUrl": "#icon-1899-DB4436-nodesc", 
                "label-scale": 0, 
                "icon-opacity": 1, 
                "icon-color": "#db4436", 
                "icon-scale": 1, 
                "icon-offset": [32, 64], 
                "icon-offset-units": ["pixels", "insetPixels"], 
                "icon": "https://www.gstatic.com/mapspro/images/stock/503-wht-blank_maps.png"
            }
        }, 
        {
            "type": "Feature", 
            "geometry": { "type": "Point", "coordinates": [122.5553367, 10.6926859, 0] }, 
            "properties": {
                "name": "MHV4+35H, Iloilo City Proper, Brgy. North Baluarte, Molo, Iloilo City, 5000 Iloilo, Philippines", 
                "styleUrl": "#icon-1899-DB4436-nodesc", 
                "label-scale": 0, 
                "icon-opacity": 1, 
                "icon-color": "#db4436", 
                "icon-scale": 1, 
                "icon-offset": [32, 64], 
                "icon-offset-units": ["pixels", "insetPixels"], 
                "icon": "https://www.gstatic.com/mapspro/images/stock/503-wht-blank_maps.png"
            }
        }, 
        {
            "type": "Feature", 
            "geometry": { "type": "Point", "coordinates": [122.5648804, 10.6946794, 0] }, 
            "properties": {
                "name": "Robinsons Iloilo, Mabini Street, Iloilo City Proper, Iloilo City, Iloilo", 
                "styleUrl": "#icon-1899-DB4436-nodesc", 
                "label-scale": 0, 
                "icon-opacity": 1, 
                "icon-color": "#db4436", 
                "icon-scale": 1, 
                "icon-offset": [32, 64], 
                "icon-offset-units": ["pixels", "insetPixels"], 
                "icon": "https://www.gstatic.com/mapspro/images/stock/503-wht-blank_maps.png"
            }
        }, 
        {
            "type": "Feature", 
            "geometry": { "type": "Point", "coordinates": [122.5667699, 10.6931039, 0] }, 
            "properties": {
                "name": "Sta. Teresita del Niño Jesus Parish - Iloilo City, J. De Leon Street, Iloilo City Proper, Iloilo City, Iloilo", 
                "styleUrl": "#icon-1899-DB4436-nodesc", 
                "label-scale": 0, 
                "icon-opacity": 1, 
                "icon-color": "#db4436", 
                "icon-scale": 1, 
                "icon-offset": [32, 64], 
                "icon-offset-units": ["pixels", "insetPixels"], 
                "icon": "https://www.gstatic.com/mapspro/images/stock/503-wht-blank_maps.png"
            }
        }, 
        {
            "type": "Feature", 
            "geometry": { "type": "Point", "coordinates": [122.5678143, 10.6976499, 0] }, 
            "properties": {
                "name": "MHX9+353, Delgado St, Iloilo City Proper, Iloilo City, Iloilo, Philippines", 
                "styleUrl": "#icon-1899-DB4436-nodesc", 
                "label-scale": 0, 
                "icon-opacity": 1, 
                "icon-color": "#db4436", 
                "icon-scale": 1, 
                "icon-offset": [32, 64], 
                "icon-offset-units": ["pixels", "insetPixels"], 
                "icon": "https://www.gstatic.com/mapspro/images/stock/503-wht-blank_maps.png"
            }
        }, 
        {
            "type": "Feature", 
            "geometry": { "type": "Point", "coordinates": [122.5548117, 10.6970485, 0] }, 
            "properties": {
                "name": "UPV - College of Management, Iloilo City Proper, Iloilo City, Iloilo", 
                "styleUrl": "#icon-1899-DB4436-nodesc", 
                "label-scale": 0, 
                "icon-opacity": 1, 
                "icon-color": "#db4436", 
                "icon-scale": 1, 
                "icon-offset": [32, 64], 
                "icon-offset-units": ["pixels", "insetPixels"], 
                "icon": "https://www.gstatic.com/mapspro/images/stock/503-wht-blank_maps.png"
            }
        }
    ]
}
